Brewery ID,Brewer Name,City,State,Zip,Lat,Long
1,"Plzensky Prazdroj, a. s.",,,,,
2,Yellow Rose Brewing Company,,,,,
3,Abita Brewing Co.,,,,,
5,Yakima Brewing Co. / Bert Grant's Ales,,,,,
8,Widmer Brothers Brewing Company,,,,,
10,Whim Ales,,,,,
13,Commonwealth Fish & Beer Company,,,,,
14,Cambridge Brewing Company,,,,,
21,Union Export Brewery,,,,,
22,Unibroue,,,,,
25,Tollemache & Cobbold Brewery Ltd,,,,,
30,Avery Brewing Company,,,,,
31,Brauerei Pinkus Mueller,,,,,
32,Brauerei Beck & Co.,,,,,
33,Berkshire Brewing Company Inc.,,,,,
35,Boston Beer Company (Samuel Adams),,,,,
36,Brasserie Grain d' Orge (Brasserie Jeanne d'Arc SA),,,,,
37,Brasserie d'Orval S.A.,,,,,
39,Privatbrauerei Franz Inselkammer KG / Brauerei Aying,,,,,
42,Brewery Ommegang,,,,,
48,Brouwerij Van Steenberge N.V.,,,,,
52,Buzzards Bay Brewing,,,,,
53,Tennent Caledonian Breweries,,,,,
56,Celis Brewery Inc.,,,,,
57,"Cervecería Cuauhtémoc Moctezuma, S.A. de C.V.",,,,,
60,Cooperstown Brewing Company,,,,,
61,Cottrell Brewing Co.,,,,,
62,D.L. Geary Brewing Company,,,,,
66,Einbecker Brauhaus AG,,,,,
67,Eumundi Brewing Group LTD.,,,,,
68,Flying Dog Brewery,,,,,
72,Weisses Bräuhaus G. Schneider & Sohn GmbH,,,,,
73,Great Lakes Brewing Company,,,,,
74,Gritty McDuff's Brewing Company,,,,,
75,Grupo Modelo S.A. de C.V.,,,,,
76,Hacker-Pschorr Bräu GmbH,,,,,
80,Strathaven Ales,,,,,
81,Heineken Nederland B.V.,,,,,
83,Brouwerij van Hoegaarden,,,,,
85,Pioneer Brewing Co.,,,,,
91,United Breweries - UB Group,,,,,
94,Long Trail Brewing Co.,,,,,
95,Löwenbräu AG,,,,,
97,Maritime Beer Company Inc.,,,,,
99,Matt Brewing Company,,,,,
100,McNeill's Brewery,,,,,
101,Melbourn Bros.,,,,,
103,"Middle Ages Brewing Co., Ltd.",,,,,
104,The Brewery Exchange,,,,,
106,JOS. Schlitz Brewing Co. (Pabst),,,,,
109,Moorhouse's Brewery (Burnley) Ltd,,,,,
113,Samuel Smith Old Brewery (Tadcaster),,,,,
115,"Old Nutfield Brewing Company, Ltd.",,,,,
122,Panther Brewing Company,,,,,
123,"Paper City Brewery Co., Inc.",,,,,
125,Pennsylvania Brewing Company,,,,,
126,Pete's Brewing Company,,,,,
127,Portland Brewing Company,,,,,
128,Privatbrauerei Franz Joseph Sailer,,,,,
130,Boulder Beer / Wilderness Pub,,,,,
132,Rogue Ales,,,,,
136,Utah Brewers Cooperative,,,,,
137,Sea Dog Brewing Company,,,,,
138,Shepherd Neame Ltd,,,,,
140,Sierra Nevada Brewing Co.,,,,,
142,Spaten-Franziskaner-Bräu,,,,,
143,Spoetzl Brewery,,,,,
144,Sprecher Brewing Company,,,,,
147,Stone Brewing Co.,,,,,
148,Belhaven Brewery Company Ltd.,,,,,
155,Upper Canada Brewing Company,,,,,
156,Tommyknocker Brewery,,,,,
157,Stone City Brewing,,,,,
158,Great Divide Brewing Company,,,,,
160,Wychwood Brewery Company Ltd,,,,,
161,Florida Beer Company,,,,,
163,Amstel Brouwerij B. V.,,,,,
164,Harvey & Son Ltd.,,,,,
166,Palm Springs Brewery Inc.,,,,,
167,Brewery Lobkowicz,,,,,
172,Brauerei C. & A. Veltins GmbH & Co.,,,,,
173,Hair of the Dog Brewing Company / Brewery and Tasting Room,,,,,
174,Latrobe Brewing Co.,,,,,
176,Würzburger Hofbräu AG,,,,,
178,J.W. Lees & Co (Brewers) Ltd,,,,,
181,George Gale & Company Ltd,,,,,
183,Brouwerij Sterkens N.V.,,,,,
184,Bierbrouwerij De Koningshoeven B.V.,,,,,
185,Aass Brewery,,,,,
187,Brouwerij Lindemans,,,,,
188,The Caledonian Brewing Company,,,,,
189,Delta Beverages,,,,,
190,Brouwerij De Troch,,,,,
192,New Belgium Brewing,,,,,
193,Anderson Valley Brewing Company,,,,,
194,McAuslan Brewing,,,,,
197,Brasserie Fischer / Fischer Biere d' Alsace,,,,,
199,Ballast Point Brewing Company,,,,,
200,Mendocino Brewing Company,,,,,
202,Brouwerij Bosteels,,,,,
206,Hook & Ladder Brewing Company (No. 2),,,,,
207,Brasserie de Rochefort,,,,,
208,Brouwerij Westmalle,,,,,
210,Maplewood Farms Restaurant & Brewery,,,,,
214,Brouwerij De Gouden Boom,,,,,
215,Bières de Chimay S.A.,,,,,
221,Desnoes & Geddes Limited,,,,,
222,Brouwerij Duvel Moortgat NV,,,,,
223,Brouwerij Bockor N.V.,,,,,
225,Amherst Brewing Co.,,,,,
233,Sherwood Forest Brewers Ltd.,,,,,
234,Owen O'Leary's,,,,,
237,Quincy Ships Brewing Company,,,,,
240,Murphy Brewery Ireland Limited,,,,,
252,Bayerische Staatsbrauerei Weihenstephan,,,,,
253,Casco Bay Brewing Co.,,,,,
254,Oak Pond Brewing Company,,,,,
255,SLO Brewing Company,,,,,
256,Lost Coast Brewery and Cafe,,,,,
257,Steel Brewing Company,,,,,
258,Birra Peroni Industriale S.p.A.,,,,,
261,Cisco Brewers Inc.,,,,,
262,Shmaltz Brewing Company,,,,,
263,Brauerei Heller-Trum / Schlenkerla,,,,,
264,Oy Sinebrychoff Ab,,,,,
266,Mad River Brewing Company,,,,,
267,Odell Brewing Company,,,,,
269,Ceres Brewery (Royal Unibrew),,,,,
270,Virgin Islands Brewing Co.,,,,,
273,SweetWater Brewing Company,,,,,
281,"Tsingtao Brewery Co., Ltd.",,,,,
282,Salopian Brewing Company Ltd,,,,,
283,Brouwerij Liefmans,,,,,
284,Sapporo Breweries Ltd.,,,,,
285,Brauerei Schloss Eggenberg,,,,,
286,Hampshire Brewery Ltd,,,,,
287,"Bell's Brewery, Inc.",,,,,
288,Brauerei Heinrich Reissdorf,,,,,
289,Saint Ides Brewing Company,,,,,
290,Binding-Brauerei AG,,,,,
294,Cropton Brewery,,,,,
295,St. Georgenbräu,,,,,
297,Thomas Caffrey Brewing Co.,,,,,
298,Coniston Brewing Co. Ltd,,,,,
302,Genesee Brewing Co. / Dundee Brewing Co.,,,,,
304,Brewery Budweiser Budvar / B.B.N.P.,,,,,
306,Coors Brewing Company,,,,,
307,"Kinsale Brewing Company,",,,,,
309,Brasserie Duyck,,,,,
319,Brau Union Österreich AG,,,,,
322,Brouwerij Smisje,,,,,
339,Flying Fish Brewing Company,,,,,
341,Columbus Brewing Company,,,,,
343,"Jasper Murdock’s Alehouse, Dining Room & Microbrewery",,,,,
350,Coeur d'Alene Brewing Co.,,,,,
351,Steam Plant Grill,,,,,
353,"Carlton & United Breweries, Ltd.",,,,,
355,San Miguel Corporation,,,,,
357,New England Brewing Co.,,,,,
360,Warsteiner Brauerei,,,,,
363,Big Time Brewery & Alehouse,,,,,
365,Pike Pub & Brewery,,,,,
366,Thomas Kemper Brewing Co.,,,,,
371,Montgomery Brewing Company,,,,,
372,Olde Auburn Ale House,,,,,
378,Atlantic Brewing Company,,,,,
379,Moosehead Breweries Ltd.,,,,,
380,Brasserie Castelain,,,,,
381,Snowgoose Restaurant & Pub / Sleeping Lady Brewing Company,,,,,
384,New Knoxville Brewing Company,,,,,
386,Broken Tooth Brewing,,,,,
387,Edsten Brewing Company,,,,,
388,Brasserie Cantillon,,,,,
389,Ceylon / Lion Brewery Limited,,,,,
390,Oaken Barrel Brewing Company,,,,,
392,Weyerbacher Brewing Co.,,,,,
394,Stoudts Brewing Co.,,,,,
395,Bluegrass Brewing Co. - East St. Matthew's,,,,,
396,AleSmith Brewing Company,,,,,
397,Pipkin Brewery,,,,,
400,Belfast Bay Brewing Co.,,,,,
401,Baltika Breweries,,,,,
402,Old Dominion Brewing Company,,,,,
409,Central Coast Brewing,,,,,
410,Pittsburgh Brewing Co.,,,,,
411,Stoney Creek Brewing Company,,,,,
414,Diamond Bear Brewing Company,,,,,
417,August Schell Brewing Company,,,,,
420,Oldenberg Brewing Company,,,,,
421,Formosa Brewing Co.,,,,,
423,Boulevard Brewing Co.,,,,,
425,H.C. Berger Brewing Co.,,,,,
426,Maclay Inns Ltd.,,,,,
428,Mahrs-Bräu,,,,,
430,Alltech’s Lexington Brewing and Distilling Co.,,,,,
432,Bohannon Brewery / Market Street Brewery,,,,,
433,Molson Coors Canada,,,,,
434,Cervejaria Sul Brasileira,,,,,
435,Minhas Craft Brewery,,,,,
437,Pivovary Staropramen,,,,,
439,UNICER União Cervejeira S.A.,,,,,
440,Ochakovo,,,,,
442,F & M Schaefer Brewing Co.,,,,,
443,Roffey  Brewing Company,,,,,
445,Bedele Brewery,,,,,
446,Traverse Brewing Company,,,,,
447,Pabst Brewing Company,,,,,
449,New Amsterdam Brewing Company,,,,,
451,Moat Mountain Smoke House & Brewing Co.,,,,,
453,Pivovarna Laško,,,,,
455,Creemore Springs Brewery Limited,,,,,
457,Lakeport Brewing Company,,,,,
459,Mackinaw Brewing Company,,,,,
460,Belmont Brewing Company,,,,,
464,Badische Staatsbrauerei Rothaus AG,,,,,
466,South African Breweries plc,,,,,
467,Summit Brewing Company,,,,,
468,Minnesota Brewing Company,,,,,
470,Abbaye de Leffe S.A.,,,,,
471,Brauerei Fässla,,,,,
473,Pacific Western Brewing Company,,,,,
474,Inertia Industries Ltd.,,,,,
475,Pivovarna Union,,,,,
476,Swale Brewery,,,,,
477,Willimantic Brewing Co.,,,,,
479,Watney Truman Ltd.,,,,,
481,Stuttgarter Hofbräu AG,,,,,
482,Hansa Borg Bryggerier ASA,,,,,
483,Grans Bryggeri AS,,,,,
485,Humboldt Brews LLC,,,,,
487,Tampa Bay Brewing Co.,,,,,
489,Brouwerij 't IJ,,,,,
490,Liquid Manufacturing (Arlington Brewing Co.),,,,,
491,Coopers Brewery Limited,,,,,
493,Cosmos Brewery (Thai Beverage Plc.),,,,,
495,Saxer Brewing Company / Nor'Wester Beer Company,,,,,
499,Het Brouw Café,,,,,
500,Surinaamse Brouwerij N.V.,,,,,
502,Bintang,,,,,
503,Dreher Brewery,,,,,
505,Den Engel Bierbrouwers,,,,,
507,Gulpener Bierbrouwerij B.V.,,,,,
508,Burg Bier Brouwerij,,,,,
509,Haerlemsche Bierbrouwerij B.V.,,,,,
511,Stadsbrouwerij De Hemel,,,,,
512,De 3 Horne Bierbrouwerij,,,,,
514,Jopen Bier BV Haarlem,,,,,
515,Huisbrouwerij Klein Duimpje,,,,,
517,Brouwerij De Drie Kruizen,,,,,
518,Bierbrouwerij De Leeuw B.V.,,,,,
521,Bierbrouwerij Onder De Linden,,,,,
524,Bierbrouwerij De Schans,,,,,
530,Arcense Stoombierbouwerij (Hertog Jan Brouwerij),,,,,
532,Budelse Brouwerij B.V.,,,,,
533,Dommelsche Bierbrouwerij,,,,,
534,Erve Kots Brouwerij,,,,,
535,Friese Bierbrouwerij,,,,,
537,Groningse Stadsbrouwerij,,,,,
539,Hoeksche Waard Bierbrouwerij,,,,,
540,Brouwerij De Horste,,,,,
544,Brouwerij De Leckere,,,,,
545,Lindeboom Bierbrouwerij B.V.,,,,,
546,Alfa Bierbrouwerij B.V.,,,,,
547,Bierbrouwerij Moerenburg,,,,,
549,Brouwerij De Pauw B.V.,,,,,
550,Stadsbrouwerij De Pelgrim,,,,,
552,Scheldebrouwerij,,,,,
553,Bierbrouwerij Sint Christoffel B.V,,,,,
554,Bierbrouwerij Sint-Servattumus,,,,,
555,Feldschlösschen Beverages Group,,,,,
558,Independent Liquor,,,,,
559,Speakeasy Ales & Lagers,,,,,
560,Saku Brewery LTD,,,,,
561,Colorado Brewing & Trading Co.,,,,,
562,Steinhaus Brewing Co.,,,,,
564,Island Cafe & Brew Pub,,,,,
566,Krombacher Brauerei,,,,,
567,Orchard Street Brewery,,,,,
568,Browar Okocim S.A. (Carlsberg),,,,,
569,Anadolu Efes Brewery,,,,,
571,Pivovar Radegast a.s.,,,,,
572,Castlemaine Perkins,,,,,
573,Hahn Brewing Co. Pty. Ltd.,,,,,
574,Swan Brewery,,,,,
576,Zak&#322;ady Piwowarskie w Le&#380;ajsku S.A.,,,,,
577,Isle Of Skye Brewery,,,,,
578,The Liberal Cup Public House & Brewery,,,,,
579,Kona Brewing Co.,,,,,
580,Browar &#321;om&#380;a Sp. z o.o.,,,,,
582,Trailhead Brewing Company,,,,,
583,Saint Louis Brewery / Schlafly Tap Room,,,,,
585,Brauerei Gebrüder Maisel GmbH & Co.,,,,,
589,Fratello's & Fox River Brewing,,,,,
590,New Glarus Brewing Company,,,,,
591,Hoptown Brewing Company,,,,,
593,Morgan Street Brewery,,,,,
594,Route 66 Brewery,,,,,
601,Obolon Brewery,,,,,
605,"Bayern Brewing, Inc.",,,,,
607,High Point Brewing Company,,,,,
608,Rio Grande Brewing Company,,,,,
610,Bear Republic Brewing Co.,,,,,
611,Wagner Valley Brewery,,,,,
612,Flossmoor Station Restaurant & Brewery,,,,,
617,Niagara Brewing Company,,,,,
619,Indian Wells Brewing Company,,,,,
620,Der HirschBrau/Privatbrauerei Höss,,,,,
621,Tinkoff,,,,,
622,Shaftebury Brewing Company,,,,,
624,Tuckerman Brewing Co.,,,,,
627,Monteith's Brewing Co.,,,,,
629,New Century Brewing Company,,,,,
630,Academy of Fine Beers,,,,,
632,Triple Rock Brewery & Alehouse,,,,,
634,Brouwerij Van Eecke N.V.,,,,,
635,Brasserie Ellezelloise,,,,,
637,Brasserie Dupont sprl,,,,,
641,Brouwerij Verhaeghe,,,,,
645,Irish Brewing Company,,,,,
646,Carlow Brewing Company,,,,,
647,The Biddy Early Brewery,,,,,
649,Isle of Arran Brewery Company Ltd.,,,,,
650,Kelley Brothers Brewing Company,,,,,
651,Ithaca Beer Company,,,,,
654,Brouwerij Mort Subite,,,,,
655,Boddingtons,,,,,
657,Brouwerij Louwaege,,,,,
659,"Cervecería Nacional, S.A.",,,,,
660,Huisbrouwerij Boelens,,,,,
661,Muskoka Brewery,,,,,
663,Federal Jack's Restaurant & Brew Pub,,,,,
665,Smithwick's Brewery / Irish Ale Breweries Ltd,,,,,
666,Emerson's Brewery,,,,,
669,Brouwerij De Landtsheer NV,,,,,
670,Riverside Brewing Company,,,,,
675,Brouwerij Roman N.V.,,,,,
676,Foundry Ale Works,,,,,
678,Hal and Mal's Restaurant,,,,,
680,Bricktown Brewery,,,,,
681,Brasserie de l'Abbaye des Rocs s.a.,,,,,
682,Pearl Street Brewery,,,,,
683,Valkyrie Brewing,,,,,
684,Fish Brewing Company / Fishbowl Brewpub,,,,,
686,Whale Tail Brew Pub,,,,,
687,The Brew Pub at Mohegan Sun,,,,,
688,Coastal Extreme Brewing Co.,,,,,
689,Two Brothers Brewing Company,,,,,
691,Blackstone Restaurant & Brewery,,,,,
692,Ellicottville Brewing Co.,,,,,
694,Tröegs Brewing Company,,,,,
695,Manayunk Brewery and Restaurant,,,,,
696,Thomas Hooker Brewing Company,,,,,
697,Kiuchi Brewery,,,,,
699,Butterfield Brewing Company,,,,,
702,Flying Bison Brewing Company,,,,,
703,Erdinger Weissbräu,,,,,
705,Union Station Brewery,,,,,
709,Slavutych Brewery,,,,,
710,Jacob Leinenkugel Brewing Company,,,,,
711,Alley Kat Brewing Company,,,,,
715,Brauerei Fohrenburg GmbH & Co,,,,,
716,Asahi Breweries Ltd,,,,,
717,Oak Creek Brewing Co.,,,,,
718,Brouwerij Bavik,,,,,
719,Blitz-Weinhard Brewing Co.,,,,,
720,Demarche Brewery,,,,,
722,Cervecería Bavaria,,,,,
723,"Cervecería Leona, S. A.",,,,,
725,Brouwerij Haacht NV,,,,,
726,Dortmunder Actien Brauerei / DAB,,,,,
727,Asia Pacific Breweries Ltd.,,,,,
728,Zhongce Beijing Beer Company,,,,,
729,Palmetto Brewing Company,,,,,
730,Steam Whistle Brewing,,,,,
732,Brauerei Schützengarten AG,,,,,
733,Middle East International Investments Group/MEIIG,,,,,
736,Hurlimann Brewery,,,,,
739,Brouwerij De Ranke,,,,,
741,"Lakefront Brewery, Inc.",,,,,
742,District ChopHouse & Brewery,,,,,
743,Lancaster Brewing Company,,,,,
744,Little Creatures Brewing Company,,,,,
746,Valley Forge Brewing Company,,,,,
748,RCH Brewery,,,,,
749,Boyne River Brewing Company,,,,,
750,Lake Superior Brewing Company,,,,,
751,Big Sky Brewing Company,,,,,
753,Brasserie Caracole,,,,,
754,Erie Brewing Co.,,,,,
755,Big Buck Brewery & Steakhouse #1,,,,,
757,Big Buck Brewery & Steakhouse #3,,,,,
758,Uncle Buck's Brewery & Steakhouse,,,,,
761,CB's Brewing Company,,,,,
762,Butte Creek Brewing Company,,,,,
764,Blue Point Brewing Company,,,,,
765,Trafalgar Ales & Meads,,,,,
766,Heartland Brewery Union Square,,,,,
769,Amsterdam Brewing Company,,,,,
771,Ferme Brasserie Schoune,,,,,
772,Brasserie Vervifontaine,,,,,
773,Elm City Brewing Co.,,,,,
774,Idaho Brewing Company,,,,,
775,York Brewery Company Limited,,,,,
776,Catamount Brewing Company,,,,,
777,"Underground, The",,,,,
778,Pioneer Brewing Company,,,,,
780,Granville Island Brewery,,,,,
781,Longwood Brewpub & Restaurant,,,,,
782,"City Brewing Company, LLC",,,,,
783,Royal Unibrew A/S,,,,,
786,Stevens Point Brewery,,,,,
788,Slab City Brewing Company,,,,,
790,Nicolet Brewing Company,,,,,
793,Lake Louie Brewery Company,,,,,
794,Harbor City Brewing Company,,,,,
795,Brothers Brewing Company,,,,,
796,Eureka Brewing Co.,,,,,
797,Old European Brewing Company,,,,,
798,Castle Eden & Camerons Brewing Company Ltd,,,,,
800,"Thai Amarit Brewery Co., Ltd.",,,,,
803,Faultline Brewing Company,,,,,
804,Brasserie de Silly S.A.,,,,,
805,Brasserie Du Bocq,,,,,
806,W.H. Brakspear & Sons plc,,,,,
807,George Bateman and Son Ltd. / Batemans Brewery,,,,,
811,Highland Brewing,,,,,
813,Les Brasseurs de Gayant,,,,,
815,Brutopia,,,,,
816,Granite Brewery & Restaurant,,,,,
818,Steelhead Brewing Co.,,,,,
819,Ross Valley Brewing Company,,,,,
821,Monte Carlo Casino Pub & Brewery,,,,,
822,East African Breweries Ltd (Kenya Breweries),,,,,
823,The Olde Burnside Brewing Company,,,,,
826,Brasserie de l'Abbaye du Val-Dieu,,,,,
827,Brouwerij De Bie / D'Hellekappelle,,,,,
829,Haines Brewing Company,,,,,
837,Golden Pacific Brewing Company,,,,,
841,Brasserie à Vapeur,,,,,
842,Antigua Brewery Ltd.,,,,,
843,Hatuey Brewery,,,,,
846,Compañía Cervecera de Puerto Rico,,,,,
848,Bristol Brewing Company,,,,,
849,Rogan Brewery,,,,,
850,Moon River Brewing Company,,,,,
853,Black Oak Brewing Co.,,,,,
855,McMenamins Mill Creek,,,,,
856,Northwest Brewwërks,,,,,
859,Snoqualmie Falls Brewing Company & Taproom,,,,,
860,The Vermont Pub & Brewery,,,,,
862,E.J. Phair Brewing Company,,,,,
866,Scotch Irish Brewing Company,,,,,
870,Moylan's Brewery,,,,,
871,Thurn Und Taxis Regensburg Gmbh Fürstliche Brauerei,,,,,
872,Lind Brewing Company,,,,,
874,"Oriental Brewery Co., Ltd",,,,,
877,River Horse Brewing Co.,,,,,
879,Backwoods Brewing,,,,,
881,Camo Brewing Company,,,,,
882,Beach Chalet Brewery and Restaurant,,,,,
883,Tunbridge Brewing,,,,,
885,Summit Station Restaurant & Brewery,,,,,
886,Gubernija Brewery,,,,,
889,Brouwerij Palm NV,,,,,
891,Hudson Valley Brewing Company,,,,,
892,Cold Spring Brewing Co.,,,,,
894,the Nils Oscar Company,,,,,
895,Napa Valley Ale Works,,,,,
896,Independent Breweries Ltd,,,,,
899,Baltimore Brewing Company,,,,,
901,High Street Brewery & Cafe (McMenamins),,,,,
903,Gettysbrew Restaurant & Brewery,,,,,
905,Estes Park Brewery,,,,,
907,Dillon Dam Brewery,,,,,
908,Macedonian Thrace Brewery,,,,,
910,Thirsty Bear Brewing Company,,,,,
911,Klosterbrauerei Andechs,,,,,
914,Lewis & Clark Brewing Company,,,,,
917,La Zaragozana S.A.,,,,,
918,Hops Grillhouse & Brewery,,,,,
920,Mahou S.A.,,,,,
922,Brouwerij der St. Benedictusabdij de Achelse,,,,,
923,Ska Brewing Co.,,,,,
930,Landwehr-Bräu - Privatbrauerei Wörner,,,,,
931,Pacific Rim Brewing Co.,,,,,
932,Hale's Ales Brewery & Pub,,,,,
934,Topvar Brewery,,,,,
935,Darwin Brewery Ltd.,,,,,
936,No-Li Brewhouse,,,,,
939,Cross Plains Beer Company,,,,,
940,Dogwood Brewing Company,,,,,
942,Berliner Bürgerbräu GmbH,,,,,
943,Smoky Mountain Brewery & Restaurant,,,,,
945,Brasserie Belle-Vue,,,,,
948,Waimea Brewing Company,,,,,
949,Stone Arch Brewpub,,,,,
952,Great Dane Pub & Brewing Company (Downtown),,,,,
954,Thisted Bryghus,,,,,
955,Rockslide Brewery & Pub,,,,,
958,Red Star Brewery & Grill,,,,,
960,Browar Dojlidy S.A.,,,,,
961,Privat Brauerei Schmucker Ober-Mossau KG,,,,,
969,Zea Rotisserie & Brewery,,,,,
971,Crescent City Brewhouse,,,,,
978,Black Diamond Brewing Co.,,,,,
983,E & O Trading Company,,,,,
987,SandLot Brewery @ Coors Field,,,,,
995,Kawartha Lakes Brewing Company Ltd.,,,,,
996,Valhalla Microbrewery & Restaurant,,,,,
997,The Brewer's Art,,,,,
999,Montana Brewing Company,,,,,
1000,Brewer's Alley Restaurant & Brewery,,,,,
1001,Firehouse Brewing Co.,,,,,
1004,Townsville Brewing Co.,,,,,
1012,Bonaventure Brewing,,,,,
1013,Brewski Brewing Company,,,,,
1015,Red Car Brewery and Restaurant,,,,,
1032,Five Seasons Prado,,,,,
1033,Max Lager's American Grill & Brewery,,,,,
1037,Barley's Brewing Company,,,,,
1047,Typhoon Restaurant & Brewery,,,,,
1060,Hazel Dell Brewpub,,,,,
1065,Shipyard Brewery & Brewport Pub,,,,,
1068,Brauerei Gilde,,,,,
1074,Oregon Trail Brewery,,,,,
1075,Caldera Brewing Company,,,,,
1088,Mad Crab Restaurant and Brewery,,,,,
1089,Rock Bottom Restaurant and Brewery,,,,,
1090,Rocky River Brewing,,,,,
1092,"Kelly's Caribbean Bar, Grill & Brewery",,,,,
1095,Hops Grillhouse & Brewery,,,,,
1103,Nimbus Brewing Company,,,,,
1106,Grizzly Peak Brewing Company,,,,,
1108,"Inveralmond Brewery Ltd., The",,,,,
1112,Little Apple Brewing Company,,,,,
1113,Brasserie De La Soif,,,,,
1114,Bullfrog Brewery,,,,,
1115,Two Rows Restaurant & Brewery,,,,,
1125,Yellowstone Valley Brewing Co.,,,,,
1127,Buckhead Brewery and Grill,,,,,
1131,Park Tavern,,,,,
1133,Capitol City Brewing,,,,,
1135,"Franklin's Restaurant, Brewery & General Store",,,,,
1141,Brasserie Dieu Du Ciel,,,,,
1143,La Taverne Du Sergeant-Recruteur,,,,,
1144,Le Cheval Blanc,,,,,
1149,Harrison's Brewery and Restaurant,,,,,
1155,Blimp City Brewing,,,,,
1161,Privatbrauerei Christian Fiedler,,,,,
1163,Mohegan Cafe and Brewery,,,,,
1168,Barley John's Brew Pub,,,,,
1170,Upland Brewing Company,,,,,
1175,Sherlock's Home,,,,,
1177,Minneapolis Town Hall Brewery,,,,,
1178,Great Waters Brewing,,,,,
1181,Market Street Brewing Co. and Restaurant,,,,,
1183,Southend Brewery & Smokehouse,,,,,
1193,0,,,,,
1195,Pivovar Zlaty Bazant a.s.,,,,,
1196,"Great Beer Company, The",,,,,
1199,Founders Brewing Company,,,,,
1251,Woodstock Inn Brewery,,,,,
1252,Cervecería y Maltería Quilmes / Grupo Bemberg,,,,,
1254,Browerij Nacional Balashi,,,,,
1264,TBonz Gill & Grill,,,,,
1270,Red Bell Brewery & Pub,,,,,
1273,Alaus Darykla Kalnapilis,,,,,
1274,Cerveza De Cuba,,,,,
1276,Rocky River Brewery & Grille,,,,,
1286,Sioux Falls Brewing Co.,,,,,
1289,The Ship Inn,,,,,
1291,Motor City Brewing Works,,,,,
1293,"Great Grains Brewery, Inc.",,,,,
1296,Magnotta Brewery,,,,,
1297,Grand Rapids Brewing Co,,,,,
1299,Mobjack Bay Brewing Company,,,,,
1300,Castle Brewing (Kenya) Ltd,,,,,
1303,Jennings Brothers PLC,,,,,
1304,Pelican Pub & Brewery,,,,,
1306,"Badger Brewery, Hall and Woodhouse",,,,,
1308,Blue Collar Brewing Co.,,,,,
1310,"Felinfoel Brewery Company, Ltd.",,,,,
1311,Celtic Bayou,,,,,
1314,Port Washington Brewing Co.,,,,,
1315,Klosterbrauerei Weltenburg,,,,,
1318,Artisan's Brewery & Italian Grill,,,,,
1321,Wig And Pen,,,,,
1329,Bank Top Brewery,,,,,
1332,Simonds Farsons Cisk Plc.,,,,,
1333,"St. Croix Brewing Company, LLC",,,,,
1334,Blind Tiger Brewery & Restaurant,,,,,
1335,Tun Tavern,,,,,
1340,Gaslight Brewery & Restaurant,,,,,
1341,J.J. Bitting Brewing Company,,,,,
1343,Library Sports Grille & Brewery,,,,,
1349,AS Tartu Õlletehas,,,,,
1352,Wagner Brau,,,,,
1353,Forschungsbrauerei,,,,,
1357,Weissbierbrauerei Hopf,,,,,
1358,Especialidades Cerveceras S.A. de C.V.,,,,,
1369,Vena Brewery,,,,,
1374,Heineken St.Petersburg Brewery Ltd.,,,,,
1375,Bavaria Brewery,,,,,
1381,Amstar,,,,,
1382,Aldaris,,,,,
1384,Afanasy Pivo (Brau Service),,,,,
1385,Hood Canal Brewing,,,,,
1386,Harmon Restaurant & Brewery,,,,,
1387,Port Townsend Brewing Company,,,,,
1388,Brauerei Forst AG,,,,,
1389,Copper Canyon Brewery,,,,,
1391,Issaquah Brewhouse,,,,,
1394,Skagit River Brewery,,,,,
1396,Snipes Mountain Microbrewery & Restaurant,,,,,
1397,Scuttlebutt Brewing Company,,,,,
1398,Empire Brewing Company,,,,,
1399,West Yorkshire Brewery,,,,,
1401,Berliner Kindl Brauerei,,,,,
1411,Borinquen Grill & Brewing Company,,,,,
1412,Red Rock Brewing Company,,,,,
1413,Desert Edge Brewery,,,,,
1415,Marmot Mesa Brewery & Ale House,,,,,
1416,Uinta Brewing Company,,,,,
1417,Black Sheep Brewery PLC,,,,,
1423,Hyde Park Brewing Company,,,,,
1425,Union De Cervecerias Peruanas Backus y Johnston,,,,,
1427,Bahus Brewery,,,,,
1429,Barnaul Brewery,,,,,
1431,Dednovo Brewery,,,,,
1435,Tuborgs Bryggerier A/S,,,,,
1446,Market Cross Pub & Brewery,,,,,
1454,Broad Ripple Brew Pub,,,,,
1455,Ram Restaurant & Brewery,,,,,
1457,Arbor Brewing Company,,,,,
1463,Harboes Bryggeri A/S,,,,,
1466,Streichs Brewing Co.,,,,,
1467,Micro-brasserie Saint-Arnould,,,,,
1471,Dark Horse Brewing Company,,,,,
1472,Hite Brewery Company LTD,,,,,
1474,Barrel House Brewing Company,,,,,
1475,Maumee Bay Brewing Company,,,,,
1477,Great Northern Brewing Co. / Black Star Draught House,,,,,
1479,J. Boag & Son Brewing,,,,,
1482,The Seven Barrel Brewery,,,,,
1485,"Eddie McStiff's Restaurant, Brew Pub & Bar",,,,,
1487,Accra Brewery Limited,,,,,
1489,Královský Pivovar Krušovice a.s.,,,,,
1490,La Brasserie Seigneriale,,,,,
1491,Cerveceria Costa Rica,,,,,
1494,Lang Creek Brewery,,,,,
1497,Jupiter,,,,,
1498,Brasseries Kronenbourg,,,,,
1500,Freeport Brewing Company,,,,,
1501,Chesapeake Bay Brewing Company,,,,,
1503,Hambleton Ales,,,,,
1505,Ostankinskiy Pivovarinniy Zavod,,,,,
1522,Main Street Brewery / Mesa Cerveza,,,,,
1527,Olde Heurich Brewing Co.,,,,,
1535,Brasseurs R.J.,,,,,
1536,Privatbrauerei Gaffel Becker & Co.,,,,,
1538,Hangtown Brewery,,,,,
1539,Oettinger International Getränke-Vertriebs GmbH,,,,,
1540,Mountain Goat Beer Pty Ltd,,,,,
1546,"Hong Kong S.A.R. Brewing Company Ltd., The",,,,,
1548,John Harvard's Brewery & Ale House,,,,,
1549,Goose Island Beer Co.,,,,,
1550,Rock Bottom Restaurant & Brewery,,,,,
1551,Gordon Biersch Brewery Restaurant,,,,,
1568,Brew Moon Restaurant & Microbrewery,,,,,
1581,Broue Chope,,,,,
1587,Williamsburg Brewing Company,,,,,
1590,Diamond Knot Brewery,,,,,
1595,Cascade Brewery Company Ltd.,,,,,
1601,Independence Brew Pub,,,,,
1602,Big Hole Brewing Company,,,,,
1604,Roslyn Brewing,,,,,
1608,The Shed Restaurant & Brewery,,,,,
1610,McGuire's Irish Pub,,,,,
1616,Spanish Springs Brewing Company,,,,,
1618,Sarasota Brewing Company,,,,,
1619,C.H. Evans Brewing Company,,,,,
1620,Dunedin Brewery,,,,,
1622,Titanic Brewing Company,,,,,
1627,Eel River Brewing Co.,,,,,
1628,Southampton Publick House,,,,,
1631,Brasserie du Boxer SA,,,,,
1632,Brauerei Eichhof,,,,,
1635,Chelsea Brewing Company,,,,,
1636,Bethlehem Brew Works,,,,,
1638,Heads Up Brewing,,,,,
1639,Gallaghers' U-Brew,,,,,
1640,Big House Brewing Co.,,,,,
1643,Van Dyck Restaurant and Brewery,,,,,
1644,Kutztown Tavern,,,,,
1646,Davidson Brothers Restaurant & Brewery,,,,,
1652,Herrnbräu Bürgerliches Brauhaus Ingolstadt,,,,,
1653,Wickwar Brewing Company,,,,,
1656,South Australia Brewing Co.,,,,,
1660,Old World Brewing Company Inc.,,,,,
1672,Prague Breweries Group,,,,,
1675,Birrificio Le Baladin,,,,,
1676,Wolnzacher Bürgerbraü AG,,,,,
1677,Fire Company Brew,,,,,
1678,Sacramento Brewing Co.,,,,,
1682,Brasserie La Choulette,,,,,
1683,Santa Fe Brewing Company,,,,,
1684,"AB Group, Ltd.",,,,,
1685,Cerveceria Bucanero S.A.,,,,,
1689,West End Brewery,,,,,
1690,Shenandoah Brewing Co.,,,,,
1692,Grand Bahama Brewing Company,,,,,
1693,Krasnyj Vostok,,,,,
1700,Bere Craiova (Brau-Union Romania),,,,,
1703,Malbera S.A. (Brau-Union Romania),,,,,
1705,Silva Reghin S.A. (Brau-Union Romania),,,,,
1708,Sweetwater Tavern & Brewery,,,,,
1709,Capitol City Brewing,,,,,
1717,"Cheboksarskaya Pivovariya ""Buket Chuvashii""",,,,,
1719,Sarmat,,,,,
1720,Zagrebaèka Pivovara D.d.,,,,,
1722,Namibia Breweries Limited,,,,,
1723,Hansa Brauerei / Namibia Breweries,,,,,
1727,Hunterdon Brewing Company,,,,,
1729,Los Gatos Brewing Company,,,,,
1730,Karlova&#267;ka Pivovara,,,,,
1740,Vinap,,,,,
1741,Vityaz,,,,,
1742,"Pivovarnya ""Pyatyi Okean''",,,,,
1746,Voronezhsky Brewery,,,,,
1752,Two Rows Restaurant & Brewery,,,,,
1754,Stewart's Brewing Co.,,,,,
1755,"Fujian Yanjing Huiquan Brewery Co., Ltd.",,,,,
1762,"St. George Brewing Company, The",,,,,
1763,Bray's Brewing Company,,,,,
1767,Sun Valley Brewing Company,,,,,
1776,William Stones Ltd,,,,,
1781,Perla Browary Lubelskie S.A.,,,,,
1784,Outer Banks Brewing Station,,,,,
1787,Augustiner Bräu Kloster Mülln OHG,,,,,
1788,Flying Goose Brew Pub & Grille,,,,,
1792,Brauerei Keesmann,,,,,
1793,Capitol City Brewing Company,,,,,
1796,Herzoglich Bayerisches Brauhaus Tegernsee,,,,,
1797,Hofbrauhaus Berchtesgaden,,,,,
1798,Irseer Klosterbräu,,,,,
1799,Unions-Bräu Haidhausen,,,,,
1800,Dockside Restaurant & Brewing Co.,,,,,
1805,Rock Art Brewery,,,,,
1808,Compass Creek Restaurant & Brewery,,,,,
1809,Brewery Urpin BB Ltd.,,,,,
1810,Buffalo Brewery (Aus.),,,,,
1811,Scottish Chief's Tavern Brewery,,,,,
1818,O'Hara's Brewpub And Restaurant,,,,,
1819,Granite City Food & Brewery,,,,,
1834,"Shipwrecked Brew Pub, Restaurant and Inn",,,,,
1837,Buckeye Brewing Company,,,,,
1838,Bloomington Brewing Company / Lennie's,,,,,
1847,Asheville Pizza and Brewing Co.,,,,,
1850,Hops Grillhouse & Brewery,,,,,
1862,Top of the Hill Restaurant and Brewery,,,,,
1863,Southend Brewery & Smokehouse,,,,,
1865,Southend Brewery & Smokehouse,,,,,
1866,Southend Brewery & Smokehouse,,,,,
1869,Micro-Brasserie Breughel,,,,,
1870,Crabby Larry's Brew Pub,,,,,
1877,Berliner-Schultheiss-Brauerei GmbH,,,,,
1878,Propeller Brewery,,,,,
1879,Garrison Brewing Company,,,,,
1880,Empyrean Brewing Company,,,,,
1882,Fancy Pants Brewing Company,,,,,
1885,Cambrew / Angkor Brewery,,,,,
1888,Lake Placid Craft Brewing Company,,,,,
1890,Red Lion Brewing,,,,,
1897,Brasserie Coreff,,,,,
1899,Blackwater Brewing Company,,,,,
1901,West Virginia Brewing Company,,,,,
1909,Coasters Pub & Biergarten,,,,,
1910,Water Street Brewery,,,,,
1912,Milwaukee Ale House,,,,,
1916,Kettle House Brewing Co.,,,,,
1917,Kompania Piwowarska,,,,,
1918,Altstadthotel & Restaurant Zieglerbräu,,,,,
1922,Sunday River Brewing Co.,,,,,
1923,Uerige Obergärige Hausbrauerei GmbH / Zum Uerige,,,,,
1927,Il Vicino Wood Oven Pizza and Brewery,,,,,
1930,Alcatraz Brewing Co.,,,,,
1933,Mishawaka Brewing Company,,,,,
1939,Ibbl Ashkelon / Tank Beer,,,,,
1943,Trebjesa Brewery,,,,,
1949,Bohemian Brewery,,,,,
1950,Court Avenue Brewing Company,,,,,
1951,"Cerveceria Hondurena, S.A. / BevCo Ltd",,,,,
2014,Great Western Brewing,,,,,
2015,Golden Valley Brewery and Pub,,,,,
2016,Lighthouse Brewing Company,,,,,
2044,"Pivovar Starbrno, A.S.",,,,,
2055,Bernard Family Brewery,,,,,
2062,Pivovar Klaster,,,,,
2064,DB Breweries Ltd.,,,,,
2068,Gentle Ben's Brewing Company,,,,,
2076,Hog's Back Brewery,,,,,
2078,Sweetwater Tavern & Brewery,,,,,
2079,Sweetwater Tavern & Brewery,,,,,
2084,Thunder Canyon Brewery,,,,,
2085,Dragonmead Microbrewery,,,,,
2089,ReaperAle,,,,,
2090,Gröninger Braukeller,,,,,
2091,Woodward Avenue Brewers,,,,,
2093,Vierling Restaurant & Marquette Harbor Brewery,,,,,
2094,Traffic Jam & Snug Restaurant,,,,,
2097,Kuhnhenn Brewing Company,,,,,
2098,Terminal Gravity Brewing Company,,,,,
2100,"Hijos De Rivera, S.A.",,,,,
2101,Blue Star Brewing Company,,,,,
2102,High Noon Saloon & Brewery,,,,,
2104,McMenamins,,,,,
2105,Edgefield Brewery (McMenamins),,,,,
2113,Raccoon River Brewing Company,,,,,
2114,Watson Bros. Bistro & Brewery,,,,,
2144,McCoy's Public House,,,,,
2145,River Market Brewing Company,,,,,
2150,Timothy Taylor & Co. Limited,,,,,
2152,Brauerei St. Scheidmantel KG,,,,,
2155,Red Brick Station,,,,,
2157,Hotel Der Waldkater,,,,,
2171,Four Peaks Brewing Company,,,,,
2179,Walnut Creek Alehouse (Pyramid),,,,,
2180,Berkeley Alehouse (Pyramid Breweries),,,,,
2181,Kamenitza AD,,,,,
2182,Zum Stiefel,,,,,
2183,Zum Löwenbräu,,,,,
2184,Winkler Braustuberl Privatbrauerei und Gutshof,,,,,
2186,Brauereigasthof Rothenbach Sonnenhof,,,,,
2188,Third Base Sports Bar & Brewery,,,,,
2192,Peak Brewing Company,,,,,
2194,Rio Salado Brewing Company,,,,,
2195,Huntington Beach Beer Company,,,,,
2196,Brasseurs De L'Anse,,,,,
2197,Liberator Brewing Company & HomeBrew Supply,,,,,
2200,Mogollon Brewing Company,,,,,
2210,Firestone Walker Brewing Co.,,,,,
2216,Brouwerij Drie Fonteinen,,,,,
2217,L'Inox,,,,,
2218,Brasserie de Tahiti S.A.,,,,,
2222,Kaiserdom Privatbrauerei Bamberg,,,,,
2230,Kopparbergs Bryggeri AB (Sofiero - Banco - Zeunerts),,,,,
2240,Papago Brewing,,,,,
2243,The Porterhouse Brewing Company,,,,,
2251,Woodforde's Norfolk Ales,,,,,
2253,Blackfoot River Brewing Company,,,,,
2263,Porterhouse Restaurant & Brew Pub,,,,,
2266,Moab Brewery,,,,,
2270,Samba Brewing Co. & Winery,,,,,
2274,Ice Axe Grill / Mt. Hood Brewing Co.,,,,,
2278,Schussenrieder Erlebnisbrauerei,,,,,
2279,Lovejoy's Taproom,,,,,
2288,Hausbrauerei Düll,,,,,
2294,Franciscan Well Micro Brewery,,,,,
2295,Messrs Maguire,,,,,
2298,Hop Back Brewery plc,,,,,
2299,Brouwerij Strubbe,,,,,
2301,Manerba Brewery,,,,,
2303,Birrificio Lambrate,,,,,
2304,Birrificio Italiano,,,,,
2305,Barley's Casino & Brewing Co.,,,,,
2306,Pints Brewery & Sports Bar,,,,,
2307,The Brew Brothers,,,,,
2308,Chicago Brewing Company,,,,,
2309,Ellis Island Casino & Brewery,,,,,
2310,Great Basin Brewing Co.,,,,,
2312,Tenaya Creek Brewery,,,,,
2313,Silver Peak Restaurant & Brewery,,,,,
2326,Brauereigasthof Schneider,,,,,
2329,Pott's Naturpark-Brauerei / Pott's Brau und Backhaus,,,,,
2335,Beba,,,,,
2346,Rochester Mills Beer Co.,,,,,
2352,Wolf Creek Brewing,,,,,
2372,Terrapin Beer Company,,,,,
2381,Sebago Brewing Company,,,,,
2382,Brasserie Meteor,,,,,
2383,Cooper's Cave Ale Company,,,,,
2399,Limburg Brewing Company,,,,,
2410,Hereford & Hops Restaurant & Brewpub,,,,,
2412,Hereford & Hops Restaurant & Brewpub,,,,,
2414,Tied House Cafe & Brewery,,,,,
2415,Tied House Cafe & Brewery,,,,,
2416,Kichesippi Beer Co.,,,,,
2418,Brauerei Diebels GmbH & Co KG,,,,,
2422,Skagway Brewing Company,,,,,
2425,Pivovar Zlatopramen,,,,,
2426,Madison Brewing Co.,,,,,
2428,Brasserie Caulier,,,,,
2429,Brasserie Des Fagnes,,,,,
2430,Al Ahram Beverages Company,,,,,
2431,Privatbrauerei Eichbaum GmbH & Co. KG,,,,,
2432,Klosterbrauerei Ettal / Ettaler Klosterbetriebe GmbH,,,,,
2436,Blue Corn Brewery,,,,,
2444,Companhia Cervejaria Brahma,,,,,
2446,Catawba Valley Brewing Company,,,,,
2449,Daleside Brewery,,,,,
2452,Gold Crown Brewery,,,,,
2456,Sophisticated Otter Restaurant & Brewing Co.,,,,,
2464,The Cowboy Restaurant & Brewery,,,,,
2466,"Londoner Brew Pub, The",,,,,
2470,The Brew Kettle Taproom & Smokehouse / Production Works,,,,,
2472,Riedenburger Brauhaus,,,,,
2478,Hösl & Co. Brauhaus GmbH,,,,,
2504,New Albanian Brewing Company - Pizzeria and Public House,,,,,
2506,Privatbrauerei Hoepfner,,,,,
2510,Main Street Brewery & Lamppost Pizza,,,,,
2513,Sun Up Brewing Co.,,,,,
2519,Blue & Gray Brewing Co.,,,,,
2520,Brasserie Lancelot,,,,,
2521,Lindens Brewing Co.,,,,,
2539,Dominica Brewery and Beverages Ltd.,,,,,
2540,Brasserie Des Cimes,,,,,
2541,Brouwerij Girardin,,,,,
2547,Jack Russell Brewing Company,,,,,
2548,Pivovaren Zavod Ledenika,,,,,
2549,Ringnes Bryggeri (Carlsberg),,,,,
2551,Australian Pizza Kitchen Brewery,,,,,
2552,Bells Hotel and Brewery,,,,,
2553,Bootleg Brewery,,,,,
2554,Matso's Broome Brewery,,,,,
2556,"Sunshine Coast Brewery, The",,,,,
2557,Sail and Anchor Pub Brewery,,,,,
2562,Gunn Island BrewBar,,,,,
2564,Inchant Brewery / Rose and Crown Hotel,,,,,
2565,Jerninghan Street Brewery,,,,,
2569,Nail Brewing Australia Pty Ltd,,,,,
2575,Boliarka-VT,,,,,
2582,Avalon Brewing,,,,,
2583,Bear Brewing,,,,,
2587,The Grizzly Paw Brewing Company,,,,,
2592,Cerveceria Tesoro,,,,,
2593,Wild Rose Brewery & Taproom,,,,,
2594,Tree Brewing,,,,,
2597,Mission Springs Brewing Company,,,,,
2600,Fernandes Brewery Tap,,,,,
2617,Big River Grille & Brewing Works,,,,,
2618,Pirinsko Pivo,,,,,
2619,Ariana Brewery,,,,,
2629,Alpirsbacher Klosterbräu,,,,,
2635,Brauerei Gasthof Hotel Post,,,,,
2636,Privatbrauerei Scherdel OHG,,,,,
2641,New Old Lompoc Brewery,,,,,
2642,North by Northwest Restaurant & Brewery,,,,,
2647,Brasserie Britt de Bretagne,,,,,
2648,Brasserie Tonnerre De Brest,,,,,
2651,Bayhawk Ales,,,,,
2652,Brauerei Schumacher,,,,,
2653,Grivita International (Brau Union Romania),,,,,
2671,Jasper Ridge Brewery,,,,,
2674,Sheepscot Valley Brewing Company,,,,,
2684,Hair of the Frog Brewery,,,,,
2686,Brasserie Seigneuriale (Sleeman Breweries Ltd.),,,,,
2687,Heavenly Daze Brewery and Grill,,,,,
2695,Bull & Bush Pub & Brewery,,,,,
2696,Jarre Creek Ranch Brewery,,,,,
2697,Brasserie de Luxembourg Mousel -Diekirch SA,,,,,
2706,Parkbrauerei / Park & Bellheimer AG,,,,,
2711,BJ's Restaurant & Brewery,,,,,
2712,Castle Eden Brewery Ltd,,,,,
2722,Schlossbräustüberl Odelzhausen,,,,,
2723,Brauerei Gasthof Hartmann,,,,,
2724,Pacific Coast Brewing Company,,,,,
2725,Kraftbräu Brewery,,,,,
2743,Green Flash Brewing Co.,,,,,
2749,Wadworth and Company Ltd.,,,,,
2758,Smiles Brewing Co. Ltd,,,,,
2762,"Portchester Brewery, The",,,,,
2764,Abbey Ales Limited,,,,,
2766,Ironworks Brewpub,,,,,
2790,Harper's Restaurant & Brewpub,,,,,
2791,Brouwerij Timmermans-John Martin N.V.,,,,,
2796,Brouwerij 't Gaverhopke,,,,,
2802,Lomsko Pivo,,,,,
2804,Pivovaren Zavod Varensko Pivo,,,,,
2805,U Fleků Pivovaru a Restauraci,,,,,
2810,Streets Of New York / Uptown Brewery,,,,,
2811,Railhouse Restaurant & Brewery,,,,,
2827,La Ferme Au Chene,,,,,
2830,America's Brewpub,,,,,
2832,AuerBräu AG,,,,,
2835,Big River Grille & Brewing Works,,,,,
2841,Wern Fawr / Bryncelyn Brewery,,,,,
2846,Pivovar Saris,,,,,
2850,Stadtbrauerei Spalt,,,,,
2853,Brauerei Schlösser GmbH,,,,,
2854,Flensburger Brauerei GmbH Und Co. KG,,,,,
2855,Hasseröder Brauerei GmbH,,,,,
2857,Brauhaus Georgbræu,,,,,
2859,Lindenbräu am Potsdamer Platz,,,,,
2875,Carolina Brewery,,,,,
2876,Hofbräuhaus Traunstein Josef Sailer KG,,,,,
2882,Beer Factory,,,,,
2888,S. C. Martens S. A.,,,,,
2890,Standing Stone Brewing Company,,,,,
2891,Karlsberg Brauerei,,,,,
2900,Paulista Brewery,,,,,
2905,Boston Baked Beans Co.,,,,,
2906,Wildwood Brewing Co.,,,,,
2907,Birra Tirana,,,,,
2909,"White Winter Winery, Inc.",,,,,
2915,Gruhlke Brewery,,,,,
2916,Highwood Brewery Ltd.,,,,,
2919,"Wild Duck Brewery, Restaurant And Music Hall",,,,,
2924,Cervecería De Barranquilla,,,,,
2930,Robert Cain & Company Limited,,,,,
2933,Huisbrouwerij Old Bailey,,,,,
2936,J.T. Whitney's Pub & Brewery,,,,,
2937,Isar Bräu,,,,,
2940,Coach's Brewhouse,,,,,
2946,The Grumpy Troll Restaurant and Brewery,,,,,
2951,Red Oak Brewery,,,,,
2953,Portsmouth Brewing Co. / Mault's Brewpub,,,,,
2958,BFM Brasserie Des Franches-Montagnes,,,,,
2963,Ginnheimer Wirtshaus,,,,,
2968,Hancock Bryggerierne,,,,,
2969,Königsbacher Brauerei,,,,,
2970,Lao Brewery Co.,,,,,
2974,Radeberger Exportbierbrauerei,,,,,
2976,Pints Pub and Brewery and Freehouse,,,,,
2979,Leopold Bros. Brewery of Ann Arbor,,,,,
2980,Alameda Brewhouse,,,,,
2998,Le Brasse-Temps (Louvain-la-Neuve) / Brasserie Dubuisson Frères,,,,,
3010,Crown City Brewery,,,,,
3024,Southern Sun Pub and Brewery,,,,,
3032,Hawks Brewing,,,,,
3042,BJ's Restaurant & Brewhouse,,,,,
3043,Brauerei Hirt GmbH,,,,,
3044,Brauerei Schleswig,,,,,
3046,Cerpa Cervejaria Paraense S/A,,,,,
3048,Dithmarscher Brauerei / Karl Hintz GmbH & Co.KG,,,,,
3049,Elgood and Sons Ltd,,,,,
3052,Hook Norton Brewery Co. Ltd.,,,,,
3054,Brouwerij Paeleman,,,,,
3062,Amos Howard's Brew Pub,,,,,
3065,Jämtlands Bryggeri AB,,,,,
3066,Dusters Restaurant and The Gottberg Brew Pub,,,,,
3073,Oggi's Pizza & Brewing Co.,,,,,
3079,Ram International / Humperdinks Restaurant and Big Horn Brewing,,,,,
3082,Main Street Brewery,,,,,
3084,Drayman's Brewery,,,,,
3087,4th Street Brewing Company,,,,,
3090,Original Saratoga Brew Pub,,,,,
3091,Frederic Robinson Limited,,,,,
3098,Big Dog's Draft House,,,,,
3099,T.D.Ridley & Sons Limited,,,,,
3106,Cerveceria La Tropical Brewmasters,,,,,
3114,California Brewing Company,,,,,
3120,Alpine Beer Company,,,,,
3123,Aberdeen Brewing Company,,,,,
3174,Coopersmith's Pub & Brewing,,,,,
3175,Calwer-Eck-Bräu GmbH & Co. KG,,,,,
3182,Fürstlich Fürstenbergische Brauerei KG,,,,,
3183,Hochdorfer Kronenbrauerei Otto Haizmann KG,,,,,
3184,Hannen Brauerei GmbH,,,,,
3185,The Tap Brewing Company,,,,,
3191,Federation Brewery Ltd,,,,,
3192,Calhoun's Microbrewery,,,,,
3193,Edelweissbrauerei Farny,,,,,
3196,Flat Branch Pub & Brewery,,,,,
3200,Portneuf Valley Brewing,,,,,
3207,San Francisco Brewing Company,,,,,
3215,Les Brasseurs de la Brie,,,,,
3219,Brasserie La Saint-Pierre,,,,,
3225,Hawai'i Nui Brewing / Mehana Brewing Company,,,,,
3232,BJ's Restaurant & Brewery,,,,,
3246,Cheshire Cat Brewpub,,,,,
3257,Tracks Brewpub (Duplicate),,,,,
3258,Humperdinks Restaurant and Sports Bar,,,,,
3259,The Merchant Ale House Restaurant & Brewpub,,,,,
3260,The Native Brewing Co.,,,,,
3264,TableRock BrewPub,,,,,
3267,Oyster Bar Brewery,,,,,
3268,O'Fallon Brewery,,,,,
3273,Mountain Town Station Brewing Co. & Steakhouse,,,,,
3282,Brasserie La Binchoise (Malterie des Remparts),,,,,
3291,Hochstiftliches Brauhaus,,,,,
3299,Brasserie Sainte-Colombe,,,,,
3300,Brasserie Saint-Monon,,,,,
3328,Brasserie Gigi,,,,,
3337,Brauerei Herrenhausen KG,,,,,
3340,Dinkelacker-Schwabenbraeu AG,,,,,
3342,Tuborg Deutschland GmbH,,,,,
3346,Chalk Hill Brewery,,,,,
3349,Museum Brewing Company / White Shield Brewery,,,,,
3350,Freedom Brewery Ltd.,,,,,
3351,Coors Brewers Ltd,,,,,
3352,Humperdinks Restaurant and Sports Bar,,,,,
3353,Rockyard Brewing,,,,,
3354,Dostal Alley Brewpub,,,,,
3355,Wolf Rock Brewing Company,,,,,
3363,Iceni Brewery,,,,,
3365,Keltek Brewing Company Ltd,,,,,
3366,Pitfield Organic Brewery,,,,,
3392,Ballard's Brewery Limited,,,,,
3394,Forth Brewery Ltd,,,,,
3403,"Cairngorm Brewery Company, The",,,,,
3407,"Clockwork Beer Co, The",,,,,
3408,Valhalla Brewery (Sheltand Refreshments Ltd),,,,,
3409,Fox And Hounds / Houston Brewery Company,,,,,
3410,Kelburn Brewing Company,,,,,
3411,Fyne Ales Ltd,,,,,
3413,Moulin Hotel & Brewery,,,,,
3419,Hakodate Beer,,,,,
3422,T.Y. Harbor Brewery,,,,,
3426,Lohrer Bier/Privatbrauerei Stumpf GmbH,,,,,
3435,Mash,,,,,
3440,JT Schmid's Restaurant & Brewery,,,,,
3441,Delafield Brewhaus,,,,,
3444,Ginga Kogen Beer,,,,,
3446,Bowen Island Brewing Co. Ltd.,,,,,
3447,Spinnakers Gastro Brewpub & Guesthouse,,,,,
3448,Hoppy Brewing Co.,,,,,
3450,Birrificio Cittavecchia,,,,,
3452,Tugboat Brewing Company,,,,,
3453,Sarajevska Pivara,,,,,
3454,Gamla Stans Bryggeri,,,,,
3455,Buckner Brewing Co.,,,,,
3459,"Hand In Hand, Kemptown Brewery Co. Ltd",,,,,
3462,Brouwerij Cnudde,,,,,
3463,Brouwerij Contreras,,,,,
3464,Brouwerij Deca Services NV,,,,,
3469,Ezo Beer KK,,,,,
3474,Listermann Brewing Supply & Mfg,,,,,
3490,B.O.B.'s House Of Brews,,,,,
3499,"Waoh / Yamato Brewery, K.K.",,,,,
3508,Butcombe Brewery Ltd.,,,,,
3512,Brouwerij Ter Dolen N.V.,,,,,
3515,Brouwerij Facon,,,,,
3517,Brouwerij Martens NV,,,,,
3518,Domus,,,,,
3521,De Proefbrouwerij (bvba Andelot),,,,,
3522,Huisbrouwerij 't Pakhuis,,,,,
3524,Bayerische Brauerei Kaiserslautern,,,,,
3526,Brasserie Battin,,,,,
3527,Brasserie Bofferding,,,,,
3529,Brasserie Simon,,,,,
3530,Water Tower Brewing Company/US Play,,,,,
3534,A.J.I. Beer Inc,,,,,
3541,Beer Station Ryogoku,,,,,
3550,"Iki-iki Beer, K.K.",,,,,
3551,Coedo Brewery (Kyodo Shoji Koedo Brewery),,,,,
3552,Haneda Shuzo Y.K.,,,,,
3553,Yo-Ho Brewing Company,,,,,
3557,Steelhead Brewing Co.,,,,,
3564,Gordon Biersch,,,,,
3567,Oggi's Pizza & Brewing Co.,,,,,
3570,Bilbo's Pizza,,,,,
3585,BJ's Restaurant & Brewery,,,,,
3593,Beowulf Brewing Company,,,,,
3594,Daniel Batham & Son Ltd,,,,,
3597,Holdens Brewery Limited,,,,,
3599,Baird Brewing Company / Fishmarket Taproom,,,,,
3604,"Hidatakayama Brewing Agricultural Corporation, Ltd",,,,,
3605,Church End Brewery Ltd,,,,,
3614,Riverhead Brewery Limited,,,,,
3620,Tuppers' Hop Pocket Brewing Company,,,,,
3623,Grid Iron Brewpub & Grille,,,,,
3625,Paulaner Brauhaus (Pulana Pijiu Fang),,,,,
3628,"Frog & Princess, The",,,,,
3630,"Frog & Rosbif, The",,,,,
3631,"Frog at Bercy Village, The",,,,,
3647,Les 3 Brasseurs,,,,,
3655,Schlossbrauerei Au-Hallertau,,,,,
3656,Hofmark Brauerei,,,,,
3668,Brasserie Henry,,,,,
3671,Brasserie Artisanale des Vosges,,,,,
3676,Brasserie De Clerck,,,,,
3678,Les Brasseurs de Bercloux,,,,,
3685,Brauerei Ludwig Erl,,,,,
3690,Peschl Bräu,,,,,
3693,Restaurant Flieger Bräu,,,,,
3695,Weissbierbrauerei Andorfer,,,,,
3700,Kunino Cho,,,,,
3701,Okhotsk Brewery Inc.,,,,,
3702,Shinano Brewery Vanryu / Chestnut Pub,,,,,
3704,"Stone Iwamoto Co., Ltd / Hakusekikan Beer Restaurant BACCHUS",,,,,
3707,Dortmunder Union Brauerei,,,,,
3715,Brasil Kirin,,,,,
3716,Wolf Brewing Company,,,,,
3717,Micro-Brasserie L'Alchimiste,,,,,
3718,Microbrasserie du Lièvre,,,,,
3720,Brasserie Belgh Brasse,,,,,
3721,Chez Gambrinus,,,,,
3724,Microbrasserie la Memphré,,,,,
3726,La Diable,,,,,
3747,Brasserie Les Trois Brasseurs,,,,,
3748,Brasserie Brootcoorens,,,,,
3760,Mill Street Brew Pub,,,,,
3768,Lunar Brewing,,,,,
3775,C.A. Cerveceria Regional,,,,,
3776,Third Street Aleworks,,,,,
3778,Browar Van Pur S.A. (Brau Union Polska),,,,,
3783,Lech Browary Wielkopolski (SABMiller),,,,,
3792,Turtle Mountain Brewing Company,,,,,
3796,Privatbrauerei Strate Detmold,,,,,
3798,High Desert Brewing Company,,,,,
3799,Brauerei Zipf (Brau Union),,,,,
3800,Erste Obermurtaler Brauereigenossenschaft,,,,,
3805,Brauerei Im Füchschen,,,,,
3816,Brenham Brewing Company,,,,,
3818,Southern Tier Brewing Company,,,,,
3820,Bozeman Brewing Company,,,,,
3825,Åbro Bryggeri,,,,,
3846,Kazbegi-Castel Lilo Brewery,,,,,
3858,Yarpivo,,,,,
3865,North End Tavern & Brewery,,,,,
3900,Kaltenberg International / König Ludwig International GmbH & Co.KG,,,,,
3922,Taylor Brewing Company,,,,,
3929,The Hillsborough Hotel,,,,,
3941,Kankiku Brewery,,,,,
3943,Cervecera CCU Chile Ltda,,,,,
3945,Alte Klosterbrauerei Vierzehnheiligen Brauerei Trunk,,,,,
3956,Brewsters Brewing Company & Restaurant - Oliver Square,,,,,
3957,Grebbestad Bryggeri,,,,,
3963,Hellenic Breweries Of Atalanti S.A.,,,,,
3965,Anacapa Brewing Company,,,,,
3968,Lily's Seafood & B.C.,,,,,
3970,Terre Haute Brewing Co. & Tap Room,,,,,
3991,St. Peters Brewery (Australia),,,,,
3995,Byron Bay Brewing,,,,,
3996,Billabong Brewery,,,,,
4013,Glenwood Canyon Brewing / Canyon Brew Pub,,,,,
4014,Mystic Brewing Company,,,,,
4027,Great Adirondack Steak And Seafood Co.,,,,,
4028,Neustadt Springs Brewery,,,,,
4029,S´Kloane Brauhaus,,,,,
4036,Old Credit Brewing Co.,,,,,
4043,Fort Garry Brewing Company Ltd.,,,,,
4047,The Tin Whistle Brewing Company,,,,,
4048,Mt. Begbie Brewing Co.,,,,,
4051,Mammoth Brewing Company,,,,,
4063,River City Brewing Co.,,,,,
4067,Fordham Brewing Company,,,,,
4069,Ram Restaurant & Brewery,,,,,
4073,Highlands Hollow Brewhouse,,,,,
4075,McCall Brewing Company,,,,,
4078,Bertram's Salmon Valley Brewery & Restaurant,,,,,
4079,Brownstone Restaurant & Brewhouse,,,,,
4087,Spendrups Bryggeri AB,,,,,
4089,Krönleins Bryggeri AB,,,,,
4090,Två Bryggare - Österlenbryggarna (Ysta Bryggeri),,,,,
4093,Fischerbräu 1. Wiener Gasthof-Brauerei,,,,,
4098,Siebensternbräu,,,,,
4099,Wieden Bräu,,,,,
4102,Hartwall Helsinki Panimo,,,,,
4103,Pivovar Breznak,,,,,
4106,Žatecký Pivovar,,,,,
4107,Pivovar &#268;erná Hora,,,,,
4109,Privatbrauerei Josef Sigl KG,,,,,
4110,Fire Station 5 Brewing Company,,,,,
4113,Mohrenbrauerei August Huber,,,,,
4117,Brauerei Raschhofer,,,,,
4120,Privatbrauerei Wurmhöringer,,,,,
4123,Gasthofbrauerei Heustadl,,,,,
4136,Bierbrouwerij De Keyzer,,,,,
4146,Karl Strauss Brewing Company,,,,,
4150,"Denmark Brewing, LLC",,,,,
4151,Schlossbrauerei Stein Wiskott GmbH & Co. KG,,,,,
4154,Klosterbrauerei Reutberg,,,,,
4161,Rother Bräu,,,,,
4174,Galbraith's Alehouse,,,,,
4210,Ohio Brewing Company,,,,,
4214,Hops Grillhouse & Brewery,,,,,
4216,Crailsheimer Engelbräu,,,,,
4231,Prairie Rock Brewing Company,,,,,
4237,Blue Cat Brew Pub,,,,,
4258,Brasserie Cornelyshaff á Heinescheid,,,,,
4260,Brasserie D'Ecaussinnes,,,,,
4261,Brasserie Des Géants,,,,,
4285,Brouwerij De Cock,,,,,
4286,Lotsolox Brewing Company,,,,,
4298,Gem Of The Sea Brewing Co.,,,,,
4300,San Marcos Brewery & Grill,,,,,
4302,"Belize Brewing Co., Ltd.",,,,,
4304,Avesta Bryggeri,,,,,
4305,Millingstorp Gårdsbryggeri AB,,,,,
4315,Brasserie Thiriez,,,,,
4317,Six Rivers Brewery,,,,,
4325,Barley Brothers Brewery & Grill,,,,,
4326,Oak Creek Brewery And Grill,,,,,
4335,The Wheat Beer Company,,,,,
4338,C.B. & Potts Restaurant & Brewery,,,,,
4341,The Brewery at 34 Depot Street,,,,,
4358,Schlafly Bottleworks,,,,,
4372,Port Halling Brewing Company,,,,,
4374,Lapin Kulta,,,,,
4375,Bushwakker Brewing Company,,,,,
4377,Syracuse Suds Factory,,,,,
4378,Georgetown Brewing Company,,,,,
4379,Elysian Tangletown,,,,,
4398,Baron Brewing,,,,,
4407,Brewery Creek Inn Restaurant & Brewery,,,,,
4408,RJ Rockers Brewing Company,,,,,
4410,Back Street Brewery,,,,,
4432,Lengthwise Brewing Company,,,,,
4437,1st City Brewery and Grill,,,,,
4442,Pivovarský D&#367;m,,,,,
4443,Prvni Novomestsky Restauracni Pivovar,,,,,
4452,Draught Microbrewery Bar & Grill,,,,,
4458,Rathaus Brauerei,,,,,
4459,Brauerei Kapsreiter GmbH,,,,,
4466,Brauerei Schloss Starkenberg,,,,,
4467,Brauerei Schwarzach Walter Seeber,,,,,
4471,Vereinigte Kärntner Brauereien AG,,,,,
4472,Die Weisse,,,,,
4473,1516 Brewing Company,,,,,
4476,Bräu Am Berg Starzinger KG / Brauerei Aspach,,,,,
4500,Brasserie Vanuxeem,,,,,
4509,Wellington's Backwater Brewing Co.,,,,,
4511,Burgdorfer Gasthausbrauerei,,,,,
4552,McGuire's Irish Pub of Destin,,,,,
4553,Fürst Wallerstein Brauhaus,,,,,
4555,Tustin Brewing Company,,,,,
4558,Altes Tramdepot,,,,,
4614,Orlando Brewing Partners,,,,,
4629,Quarryman Taverne & Brewery,,,,,
4663,Brasserie Artisanale De Rullés SPRL,,,,,
4667,Yarra Flats Brewery,,,,,
4668,Jamieson Brewery,,,,,
4669,Masthead Brewery,,,,,
4670,Oakbank Brewing,,,,,
4685,Hofbräuhaus Newport,,,,,
4698,P.H. Woods Restaurant & Brewery,,,,,
4705,Jaipur Brewing Company,,,,,
4706,Belle Isle Restaurant & Brewery,,,,,
4707,Choc Beer Co. / Pete's Place,,,,,
4709,Angara Restaurant And Brewery,,,,,
4713,Eder & Heylands Brauerei,,,,,
4724,Gulf Islands Brewing,,,,,
4739,Moffat Station Brewery,,,,,
4740,Temecula Brewing Company,,,,,
4748,Viking Brewery - Vifilfell Ltd.,,,,,
4766,Castel-Sakartvelo,,,,,
4778,3 Ravens Brewing,,,,,
4785,"Abashiri, K.K.",,,,,
4787,Brauerei Frastanz,,,,,
4808,Copper Dragon Brewery,,,,,
4828,Photos Photiades Breweries,,,,,
4833,Silver Creek Brewing Co.,,,,,
4834,"Courthouse Pub, The",,,,,
4847,Brasserie Des Gabariers (L&L Cognac SA),,,,,
4850,McMenamins Dad Watson's,,,,,
4858,Draught House Pub & Brewery,,,,,
4861,Frankenmuth Brewery,,,,,
4862,King Arthur's Steakhouse And Brewery,,,,,
4865,Speight's Brewery,,,,,
4871,Deep Creek Brewing Company,,,,,
4873,Feather River Brewing Co,,,,,
4887,Elland Brewery,,,,,
4889,"McMullen & Sons, Ltd.",,,,,
4893,Hyouko Yashiki No Mori Brewery,,,,,
4897,Jaxon's Restaurant and Brewing Company,,,,,
4898,Cheriton Brewery,,,,,
4914,Pyatiy Okean,,,,,
4916,Big Bear Mountain Brewery,,,,,
4920,Pivovariya Ivana Taranova,,,,,
4922,Day Brewing Company,,,,,
4924,Arsentich,,,,,
4928,Liberty Steakhouse & Brewery,,,,,
4929,Liberty Steakhouse Brewery,,,,,
4931,Morro Bay Brewing Company,,,,,
4932,Santa Maria Brewing Co.,,,,,
4933,Beermann's Beerwerks,,,,,
4934,Pivzavod AO Rosar,,,,,
4935,Pivzavod Votkinsk,,,,,
4936,Krasniy Vostok,,,,,
4937,Durdin (Len),,,,,
4938,Pivzavod AO Yantar,,,,,
4949,Damm S. A.,,,,,
4955,Palos De Moguer - 82,,,,,
4957,Cervunion,,,,,
4973,Kamakura Beer Brewing Company,,,,,
4977,Sailfish Bar & Grill / Twin Rivers Brewing Co.,,,,,
4978,Ram Restaurant & Brewery,,,,,
4980,Engine House No.9,,,,,
4982,Pacific Crest Brewing Company & Tap Room,,,,,
4992,Brouwerij Slaapmutske,,,,,
5000,James Squire Brewhouse / Portland Hotel,,,,,
5003,Brasserie d'Annaba,,,,,
5006,Brasserie d'Oran,,,,,
5007,Brasserie d'Algiers,,,,,
5014,Cervecería Schneider,,,,,
5018,Fábrica de Cerveza Artesanal Viejo Munich,,,,,
5040,Nasu Kogen Beer Co. Ltd.,,,,,
5047,Minamishinsyu Brewery,,,,,
5049,Bath Ales Ltd,,,,,
5050,Everards Brewery Ltd.,,,,,
5055,Nikenjayamochi Kadoya Honten Co. / Ise Kadoya Brewery,,,,,
5056,Boat Brewery / The Boat,,,,,
5058,Rooster's Brewing Company Ltd.,,,,,
5059,Pictish Brewing Company,,,,,
5060,Padre Island Brewing Company,,,,,
5074,Steamworks Brewing Co.,,,,,
5076,Big Horse Brew Pub / Horse Feathers & Co.,,,,,
5077,Barley Brown's Brewpub,,,,,
5083,Roel Brewery,,,,,
5089,Browar Grybów,,,,,
5095,Naturbier,,,,,
5106,La Casa De La Cerveza,,,,,
5107,Pig's Eye Brewing Company,,,,,
5109,Wind Valley Brewery / Rakuno Okoku Kabushiki Kaisha Brewery,,,,,
5111,Ishigakijima Dachsbrauhaus,,,,,
5115,Steelhead Brewing Co.,,,,,
5117,Founders Restaurant & Brewing Co.,,,,,
5128,Frog Island Brewery,,,,,
5129,Arkell's Brewery Limited,,,,,
5134,Sierra Madre Brewery,,,,,
5137,Randy's Fun Hunters Brewery,,,,,
5139,Altöttinger Hell-Bräu GmbH,,,,,
5141,Brauerei Ustersbach,,,,,
5142,Oettinger Brauerei,,,,,
5146,Steelhead Brewing Co.-Fisherman's Wharf,,,,,
5153,Domhof Hausbrauerei,,,,,
5159,Brauerei Schwechat (Brau Union),,,,,
5172,Goose Eye Brewery,,,,,
5187,Brasserie Du Brabant,,,,,
5188,Emmett's Brewing Company,,,,,
5190,Govnor's Public House Restaurant And Brewery,,,,,
5203,Anglo Dutch Brewery,,,,,
5204,Castle Rock Brewery,,,,,
5246,Cannon Brew Pub,,,,,
5267,Humes Brewing Company,,,,,
5275,Front Street Brewery,,,,,
5276,San Andreas Brewing / Earthquake Country Pub,,,,,
5278,Sacramento Alehouse (Pyramid Breweries),,,,,
5287,"Cherryland Brewing, LTD.",,,,,
5312,Elliot Glacier Public House,,,,,
5313,Harar Beer Factory,,,,,
5316,Full Sail Brewery & Tasting Room & Pub,,,,,
5318,Port Brewing Company / Pizza Port,,,,,
5319,Cornelius Pass Roadhouse & Imbrie Hall (McMenamins),,,,,
5321,McMenamins Queen Anne Hill,,,,,
5322,McMenamins East Vancouver,,,,,
5327,Lighthouse Brewpub (McMenamins),,,,,
5330,Highland Pub & Brewery (McMenamins),,,,,
5331,Hillsdale Brewery & Public House (McMenamins),,,,,
5337,Rubicon Brewing Company,,,,,
5339,Cerveceria Argentina S.A. Isenbeck,,,,,
5345,Cervecería Austral S.A.,,,,,
5352,Gersakh Brewery / Penguin,,,,,
5366,Fabbrica Birra Busalla,,,,,
5367,Cervezas Nacionales,,,,,
5368,Carlsberg Sverige,,,,,
5371,Hermann Brewing Company,,,,,
5379,Little Yeoman Brewing Company (DUPLICATE),,,,,
5381,Yantar Brewery,,,,,
5392,Carlyle Brewing Company,,,,,
5393,Duneland,,,,,
5394,Bugsy's Sports Bar & Brown Street Brewery,,,,,
5395,Hops Haven Brew Haus,,,,,
5406,Hogshead Brew Pub,,,,,
5419,Irkutskpisheprom,,,,,
5420,Klinskiy Pivokombinat,,,,,
5422,Pivobezalkogolniy Zavod Severskovo Pischekombinata,,,,,
5423,Solodov-Pivo Co.,,,,,
5426,Tomskoye Pivo / U Krugera,,,,,
5427,Pivovarinaya Kompaniya Utes,,,,,
5428,Severnaya Zvezda,,,,,
5430,Kolos OAO/ Ledyanoy Stakanchik,,,,,
5431,"Pikra, Inc.",,,,,
5432,Pivovariye Syem Kholmov,,,,,
5433,Promfintorg M Company,,,,,
5434,Kaluzhskaya Pivovarennaya Kompaniya,,,,,
5440,"Pivzavod Kemerovo ""Pikem""",,,,,
5443,Bent River Brewing Company,,,,,
5456,Jilin Yinpu Brewery,,,,,
5469,"Power Plant Restaurant & Brewery, The",,,,,
5470,Groupe Geloso,,,,,
5476,Bootleggers Restaurant & Brewery,,,,,
5489,Big Bear Brewing Company,,,,,
5498,Łódzkie Browary S.A.,,,,,
5500,Black Forest Brew Haus & Grill,,,,,
5501,Old Boys Brew House,,,,,
5502,Browar Amber,,,,,
5507,Kasztelan Browar Sierpc S.A. (Carlsberg),,,,,
5510,Browar Kiper,,,,,
5512,Browar Krajan,,,,,
5514,Browar Staropolski,,,,,
5516,Browar Zwierzyniec - ZP W Lublinie S.A.,,,,,
5522,Corner Pub,,,,,
5562,Vetter Alt Heidelberger Brauhaus Neuenheim,,,,,
5564,Kulturbrauerei Heidelberg,,,,,
5575,The Old Mill Brewery Ltd.,,,,,
5578,SBC Restaurant & Brewery - Stamford,,,,,
5581,Kaiser Bräu GmbH & Co KG,,,,,
5598,Detroit Brew Factory,,,,,
5605,Palisade Brewing Co.,,,,,
5638,Osteria Di Bastardu' - Last Out,,,,,
5639,Birreria Blues,,,,,
5687,Brauerei Locher AG,,,,,
5689,Sparhawk Brewers,,,,,
5691,Switchback Brewing Company,,,,,
5696,The Olde Stone Brewing Company,,,,,
5706,Braugaststätte Döbler,,,,,
5708,Ankerbräu Nördlingen,,,,,
5711,Augusta Bräu,,,,,
5721,Brauerei Alwin Märkl,,,,,
5727,Brauerei Blauer Löwe,,,,,
5752,Brauerei Aldersbach,,,,,
5753,Brauerei Baumer,,,,,
5755,Brauerei Bischofshof,,,,,
5765,Weideneder Brau,,,,,
5773,Brauerei Enzensteiner,,,,,
5784,Brauerei Karg,,,,,
5787,Bad Windsheimer Bürgerbräu,,,,,
5794,Brauerei Josef Greif,,,,,
5798,Kauzen Bräu,,,,,
5812,Brauerei Frischeisen,,,,,
5816,Brauerei Laupheimer Günz,,,,,
5817,Brauerei Georg Michael GmbH,,,,,
5819,Brauerei Goss,,,,,
5823,Kapplerbräu,,,,,
5825,Brauerei Gundel,,,,,
5830,Brauerei Hacklberg,,,,,
5843,Brauerei Sigwart KG,,,,,
5847,Brauerei Maisach - Bräustüberl Maisach,,,,,
5850,Brauerei S. Riegele,,,,,
5851,Brauerei Josef Schimpfle,,,,,
5854,Brauerei Schäffler,,,,,
5855,Private Landbrauerei Schönram,,,,,
5859,Brauerei Wittmann,,,,,
5864,Dark Mountain Brewery,,,,,
5886,Eittinger Fischerbräu,,,,,
5887,Engelbräu Rettenberg,,,,,
5892,Walnut Brewery,,,,,
5895,Judge Baldwin's Brewing Company,,,,,
5904,Brewery At The Bay / Put-In-Bay Brewing Co.,,,,,
5908,Brauerei Franz Xaver Glossner,,,,,
5910,Jamesport Brewing Company Inc.,,,,,
5911,Brauerei  Gasthof Höhn,,,,,
5914,Brauerei Johannes Grasser,,,,,
5926,Brauerei Konrad Will,,,,,
5927,Brauerei Kraus,,,,,
5930,Brauerei Leonhard Schübel,,,,,
5943,Brauerei Michael Plank,,,,,
5946,Brauerei Müller,,,,,
5947,Brauerei Mälzerei Otto Kienberger,,,,,
5949,Brauerei Ott,,,,,
5952,Brauerei Peter Griess,,,,,
5957,Brauerei Reichold,,,,,
5959,Brauerei Richard Wagner,,,,,
5961,Ludwig Roth Bierbrauerei GmbH,,,,,
5970,Staffelberg Bräu Fam. Geldner-Wehritz,,,,,
5980,Brauerei Wolfshöhe K. u. F. Weber GmbH & Co. KG,,,,,
5989,Brauerei Zur Sonne,,,,,
5995,Brauhaus Schinner,,,,,
6006,Erste Dampfbierbrauerei Zwiesel W. Pfeiffer KG,,,,,
6008,Eschenbacher Wagner-Bräu Privatbrauerei GmbH,,,,,
6009,Exportbierbrauerei Richard Glenk OHG,,,,,
6012,Brauerei Friedr. Jacob,,,,,
6013,Felsen Bräu W. Glossner KG,,,,,
6015,Forstquell Brauerei von Friedrich Höhenberger,,,,,
6018,Freiherr Von Poschinger Braysche Schlossbrauerei Irlbach GmbH,,,,,
6019,Fürstliches Brauhaus Ellingen,,,,,
6023,Bürgerbräu Hersbruck Deinlein & Co. KG,,,,,
6033,Gräfliche Brauerei Arco Valley,,,,,
6043,Hirschbräu Friedrich Wurm KG,,,,,
6044,Weyermann Brauerei GmbH,,,,,
6045,Iron Hill Brewery & Restaurant,,,,,
6046,Held Bräu,,,,,
6051,Hönicks  Bräu,,,,,
6052,Innstadt Brauerei,,,,,
6056,Jura Bräu,,,,,
6059,Karmelitenbrauerei Karl Sturm,,,,,
6067,Brewbakers,,,,,
6068,Southside Speakeasy And Brewpub,,,,,
6074,Klosterbrauerei Furth GmbH & Co. KG,,,,,
6076,Klosterbrauerei Mallersdorf,,,,,
6078,Klosterbrauerei Scheyern,,,,,
6092,Kössel Bräu,,,,,
6099,Lang Bräu OHG,,,,,
6104,Müllerbräu Neuötting K. Müller,,,,,
6105,Mühlfelder Brauhaus,,,,,
6116,Meckatzer Löwenbräu Benedikt Weiss KG,,,,,
6121,"Orth Bräu GmbH & Co. KG ""Zum Fuchsbeck""",,,,,
6126,Beck Bräu OHG,,,,,
6127,Postbrauerei Weiler u. Siebersquelle Anton Zinth KG,,,,,
6130,Privatbrauerei Hofmühl GmbH,,,,,
6135,Privatbrauerei Reh,,,,,
6144,Pyraser Bier GmbH & Co. KG,,,,,
6147,Püls Bräu OHG,,,,,
6155,Schlossbrauerei Autenried GmbH,,,,,
6169,Schlossbrauerei Reckendorf Georg Dirauf KG,,,,,
6174,Schlossbrauerei Stelzer,,,,,
6188,Schwarzbräu GmbH,,,,,
6191,Schäffbräu Rudolf Schäff,,,,,
6192,Sitterbräu Gasthausbrauerei,,,,,
6195,Spezial Brauerei Schierling GmbH,,,,,
6197,Liebhart´s Bräuhaus,,,,,
6209,Weissbierbrauerei Schwendl,,,,,
6214,Brauerei Grandauer - Wildbräu Grafing vor München,,,,,
6221,Weib´s Brauhaus,,,,,
6225,Weissbräu Kösslarn,,,,,
6227,Winkler Bräu Schlicht GmbH & Co.,,,,,
6238,Kulmbacher Kommunbräu,,,,,
6244,Tuck's Brewery,,,,,
6245,Mt. Angel Brewing Company,,,,,
6250,Mount Rushmore Brewing Company,,,,,
6266,Flagstaff Brewing Company,,,,,
6268,Brasserie Oc'Ale,,,,,
6272,CANOE Brewpub,,,,,
6275,Stariy Georg,,,,,
6277,Stakhanovitz,,,,,
6278,Zhigulovskiy Pivo-Byezalkogolniy Kombinat/U Vakano,,,,,
6288,Picobrouwerij Alvinne / Den Bierzolder,,,,,
6300,Old Hat Brewery & Grill,,,,,
6305,Vizit OAO,,,,,
6313,La Jolla Brew House,,,,,
6326,The Lion Brewery Restaurant,,,,,
6331,Brouwerij De Prael,,,,,
6356,Trattoria Microbirreria Cà De Gos,,,,,
6371,Jack's Brewing Company,,,,,
6372,Fort Collins Brewing,,,,,
6376,Banfi,,,,,
6393,Abbeydale Brewery,,,,,
6394,Alcazar Brewing Co.,,,,,
6395,Boggart Hole Clough Brewing Co.,,,,,
6399,Povolzhye OAO,,,,,
6432,Hoa Vien Brauhaus Restaurant,,,,,
6488,Joseph Holt Group plc,,,,,
6493,Wernecker Bierbrauerei,,,,,
6513,Schorschbräu,,,,,
6536,Kitzmann Bräu,,,,,
6558,Coach House Brewing Company Ltd.,,,,,
6559,Cottage Brewing Co. Ltd,,,,,
6565,Hops Grillhouse & Brewery,,,,,
6571,Brasserie Du Chant Du Loup,,,,,
6575,Crouch Vale Brewery Limited,,,,,
6577,Titanic Brewery,,,,,
6578,The Cambridge House Brewpub,,,,,
6581,Lawrence Victor Estate,,,,,
6592,Auerhahn Bräu Schlitz GmbH,,,,,
6593,Bad Homburger Brauhaus Graf Zeppelin (Hofgut Kronenhof),,,,,
6596,Brauerei Grohe GmbH,,,,,
6597,Schwalm Bräu - Privat Brauerei Fr. Haaß KG,,,,,
6604,Bärenbräu GmbH,,,,,
6609,Eschweger Klosterbrauerei,,,,,
6615,Brauhaus Knallhütte/Hütt Brauerei Bettenhäuser GmbH & Co. KG,,,,,
6624,Brauerei Klaus Rauh GmbH,,,,,
6625,Martini Brauerei GmbH,,,,,
6627,Pfungstädter Brauerei,,,,,
6643,Das Kleine Brauhaus Zu Bergedorf Luitbräu,,,,,
6649,Michelsbräu GmbH,,,,,
6657,Bavaria-St. Pauli-Brauerei GmbH,,,,,
6663,Brauerei G.A. Bruch,,,,,
6678,Oderland Brauerei GmbH,,,,,
6684,Schlossbrauerei GmbH Fürstlich-Drehna,,,,,
6685,Spreewälder Privatbrauerei,,,,,
6690,Kircher Brauhaus GmbH,,,,,
6695,Marston's PLC,,,,,
6699,Erste Leopoldshafener Gasthausbrauerei Andreasbräu GmbH,,,,,
6700,Berg Brauerei Ulrich Zimmermann GmbH & Co. KG,,,,,
6703,Härtsfelder Familienbrauerei Hald e.K.,,,,,
6731,Palmbräu Zorn Söhne KG,,,,,
6740,Wallhall Brauhaus Im Lamm,,,,,
6746,Matsuya Kyoto Machiya Beer Brewery,,,,,
6748,Melo Abreu / Fabrica de Cervejas e Refrigerantes,,,,,
6755,Brauerei Stolz GmbH & Co. KG,,,,,
6764,Königsegger Walderbräu AG,,,,,
6774,Ankerbrauerei Nagold GmbH,,,,,
6782,Brauerei Hirschen,,,,,
6784,Brauerei Ladenburger GmbH,,,,,
6794,Brauerei Max Wolf GmbH,,,,,
6795,Brauerei Zoller-Hof,,,,,
6800,Brauhaus Joh. Albrecht GmbH,,,,,
6801,Brauhaus Kühler Krug,,,,,
6803,Gebrüder Klausmann KG Hirschenbrauerei,,,,,
6806,Der Vogelbräu,,,,,
6807,Distelhäuser Brauerei,,,,,
6811,Heidelberger Brauerei GmbH,,,,,
6817,Hofbrauhaus Hatz AG,,,,,
6823,Kronen Brauhaus,,,,,
6828,Lammbrauerei,,,,,
6830,Lammbräu Hilsenbeck GmbH & Co.,,,,,
6834,Baisinger Löwenbrauerei Teufel GmbH,,,,,
6836,Martins Bräu Erste Freiburger Gasthausbrauerei,,,,,
6840,Privatbrauerei M. Ketterer GmbH & Co.,,,,,
6843,Schlossbrauerei zu Schmieheim,,,,,
6844,Welde Bräu GmbH & Co. KG,,,,,
6847,Schlüsselbräu Privatbrauerei Helmut Bosch und Schlüsselkeller,,,,,
6859,Brouwerij Crombé / 't Brouwershof,,,,,
6865,Detroit Beer Co.,,,,,
6871,Barnsley Brewery Company Limited,,,,,
6872,Cotleigh Brewery,,,,,
6874,Felstar Brewery & Felstead Vineyard,,,,,
6875,Hopdaemon Brewery Company,,,,,
6877,Moles Brewery (Cascade Drinks Limited),,,,,
6878,Oulton Ales Limited,,,,,
6879,P&DJ Goacher,,,,,
6880,Princetown Breweries Limited,,,,,
6881,Skinner's Brewery,,,,,
6882,St. George's Brewing Company Limited,,,,,
6883,Wentworth Brewery Limited,,,,,
6895,San Rafael Brewing Company,,,,,
6900,Beartown Brewery,,,,,
6901,Ossett Brewing Company,,,,,
6902,Ramsgate Brewery,,,,,
6905,Teignworthy Brewery,,,,,
6907,Triple fff Brewing Company,,,,,
6908,"Swan On The Green, The",,,,,
6924,Walkabout Brewery,,,,,
6928,Twain's Billiards and Tap,,,,,
6969,Magadanskaya Gruppa OAO,,,,,
6970,Brouwerij Den Hopperd,,,,,
6976,Karl Strauss Brewing Company,,,,,
6980,Keegan Ales,,,,,
6985,Vale Brewery Company,,,,,
6994,Alexander Keith's,,,,,
7008,Pump House Brewery,,,,,
7015,Babe's Bar-B-Que And Brewery,,,,,
7017,Mecklenburgische Brauerei Lübz GmbH,,,,,
7035,Big Lamp Brewers,,,,,
7036,Brewster's Brewing Co Ltd,,,,,
7037,Oldershaw Brewery,,,,,
7038,Rudgate Brewery Limited,,,,,
7051,Tractor Brewing Co.,,,,,
7057,Aktienbrauerei Simmerberg AG,,,,,
7059,Alamo Beer Co.,,,,,
7065,"Hidaka Beer, Inc.",,,,,
7073,Kamchatskoye Pivo OAO,,,,,
7087,Braustolz GmbH,,,,,
7088,Sternquell Brauerei Plauen,,,,,
7091,Archers Brewing & Wholesale Limited,,,,,
7092,Arundel Brewery Limited,,,,,
7094,Barngates Brewery Limited,,,,,
7104,H.B. Clark & Co (Successors) Limited,,,,,
7128,Privatbrauerei Wittingen GmbH,,,,,
7200,Gorkha Brewery,,,,,
7202,Nepal Brewery Company,,,,,
7214,Mahogany Ridge Brewery & Grill,,,,,
7217,Big Nose Brewing,,,,,
7220,Helsinge Ångbryggeri,,,,,
7223,AS L&#257;&#269;pl&#275;a Alus,,,,,
7234,Potters Hotel & Brewery (Hunter Beer Co),,,,,
7248,Firehouse Brewery & Restaurant,,,,,
7253,Old Market Pub And Brewery,,,,,
7282,Brauerei Hofstetten Krammer GmbH & Co. KG,,,,,
7285,Brauerei Ried,,,,,
7286,Brauerei Schrems,,,,,
7289,Brauerei Weitra,,,,,
7290,Brauerei Zwettl Karl Schwarz GmbH,,,,,
7295,Hubertus Bräu Johann Kühtreiber OHG,,,,,
7312,Altenburger Brauerei GmbH,,,,,
7313,Vereinsbrauerei Apolda GmbH,,,,,
7314,Stadtbrauerei Arnstadt,,,,,
7315,Watzdorfer Traditions- und Spezialitätenbrauerei GmbH,,,,,
7319,Braugold Brauerei Riebeck GmbH & Co. KG,,,,,
7321,Brauhaus König Sahl Erste Gasthausbrauerei Gotha,,,,,
7325,Gasthausbrauerei Talschänke,,,,,
7326,Rhoenbrauerei Dittmar,,,,,
7329,Bürgerliches Brauhaus Saalfeld GmbH,,,,,
7332,Zweite Schweriner Schlossbrauerei,,,,,
7333,Darguner Brauerei GmbH,,,,,
7338,Hansens Brauerei,,,,,
7345,Kirner Bier,,,,,
7349,Privatbrauerei Gebrüder Mayer,,,,,
7350,Traditionsbrauerei Brauberger zu Lübeck,,,,,
7351,Westerwald Brauerei H. Schneider,,,,,
7364,Onuma Brewery,,,,,
7366,Pivovar Regent Trebon,,,,,
7375,Squatters Pub Brewery,,,,,
7380,Brasserie De Milly,,,,,
7381,Beyerd Café-Restaurant-Brouwerij De Beyerd,,,,,
7390,Efes Karaganda Pivovarinniy Zavod,,,,,
7397,Kölner Verbund Brauereien GmbH & Co. KG,,,,,
7400,The Wellhead Restaurant & Brewpub,,,,,
7402,Wasatch Brew Pub,,,,,
7404,Downtown Grill & Brewery,,,,,
7406,Bitter Root Brewing,,,,,
7481,Chodovar Brewery,,,,,
7482,Pivovar Eggenberg & Restaurant Eggenberg,,,,,
7483,Pivovar Kutná Hora,,,,,
7485,Pivovoar Branik,,,,,
7486,Pivovar Krakonos,,,,,
7527,Big River Brewpub,,,,,
7533,Brauerei Fischerstube AG,,,,,
7534,Wharfedale Brewery,,,,,
7536,Castle Bay Irish Pub,,,,,
7538,St. Sebastiaan Belgian Microbrewery,,,,,
7582,Brauerei Allersheim GmbH,,,,,
7589,Einsiedler Brauhaus GmbH,,,,,
7591,Feldschlösschen AG,,,,,
7593,Feldschloesschen AG,,,,,
7595,Glückauf Brauerei GmbH Gersdorf,,,,,
7597,Privatbrauerei Eibau i. Sa. GmbH,,,,,
7598,Privatbrauerei Härke KG,,,,,
7601,Brauerei An Der Thomaskirche,,,,,
7607,Leipziger Brauhaus zu Reudnitz GmbH,,,,,
7623,Privatbrauerei Joh. Cramer,,,,,
7628,Brauerei Vormann,,,,,
7630,Brauerei August Gleumes GmbH,,,,,
7631,Brauerei zur Malzmühle Schwartz KG,,,,,
7636,Hohenfelder Privat Brauerei,,,,,
7637,Privatbrauerei Ernst Barre GmbH,,,,,
7639,Privatbrauerei A. Rolinck GmbH & Co.,,,,,
7673,Brasserie La Tongrinnoise,,,,,
7678,Pfaffen Brauerei Max Päffgen,,,,,
7679,Päffgen Obergärige Hausbrauerei,,,,,
7685,Full Circle Brewing Co.,,,,,
7710,Brauhaus Torgau AG,,,,,
7714,Krostitzer Brauerei GmbH,,,,,
7716,Warburger Brauerei GmbH,,,,,
7722,Huske Hardware House Brewing Company,,,,,
7730,Nøgne Ø - Det Kompromissløse Bryggeri A/S,,,,,
7732,Lido Atputas Centrs,,,,,
7734,Amarcord Birra Artigianale Italiana,,,,,
7753,Olde Hickory Brewery,,,,,
7773,Legacy Brewing Co.,,,,,
7776,Brauerei Westheim GmbH,,,,,
7781,Gebr. Sünner GmbH & Co. KG,,,,,
7848,Big Rock Chop & Brewhouse,,,,,
7891,"Kompaniya ""Teddy Beer""/Mikropivovariya Laplandia",,,,,
7898,Dark Star Brewing Company Limited,,,,,
7928,"Russkaya Pivovarennaya Kompaniya ""Chmelyoff""",,,,,
7933,Pivovariya Luzhniki OAO,,,,,
7979,Hoppers Grille And Brewery,,,,,
8038,Spessart Brauerei GmbH,,,,,
8202,Specklebelly's Brew Pub,,,,,
8203,Paddock Wood Brewing Co.,,,,,
8206,Brewsters Brewing Company & Restaurant - Normanview,,,,,
8208,Barley Mill Brew Pub / Trifons Pizza,,,,,
8213,The Tap Brewing Co. & Eatery Inc.,,,,,
8215,Bridge's Ale House,,,,,
8221,Mano's Grill & Brewhouse,,,,,
8263,Bryggeriet Apollo,,,,,
8264,Nørrebro Bryghus,,,,,
8265,Mount Shivalik Breweries Ltd,,,,,
8266,"Pivovar V Martine / Heineken Slovensko, a.s.",,,,,
8270,Brewerkz Riverside Point,,,,,
8285,Lighthouse Brewery,,,,,
8346,Maisel Bräu Bamberg GmbH,,,,,
8357,Scattor Rock,,,,,
8363,Dahlonega Brewing Company (Caruso's Italian),,,,,
8377,Tower Brewery,,,,,
8396,1648 Brewing Company Ltd,,,,,
8402,Yates Brewery,,,,,
8405,Tomos Watkin Brewery,,,,,
8423,Rocky Run Tap And Grill,,,,,
8446,barVolo,,,,,
8452,Shadows Brewing Company,,,,,
8508,McCallum Brewery,,,,,
8515,Oxenhope Moorlands Brewery,,,,,
8521,Rock Bottom Restaurant And Brewery,,,,,
8535,Carlsberg-Tetley Brewing Ltd,,,,,
8540,Etna Brewery,,,,,
8560,Hepworth & Co. (Brewers) Ltd.,,,,,
8590,Wet Planet Beverage Co.,,,,,
8593,Phoenix Brewery Co Ltd,,,,,
8611,Melchers Group,,,,,
8630,Quay Street Brewing Company,,,,,
8646,Saigon Beer Company,,,,,
8681,Peter B's Brew Pub,,,,,
8685,Ruth McGowan's Brewpub,,,,,
8687,Bear's Lair,,,,,
8689,Lost Duck Brewpub,,,,,
8731,Oechsner Ankerbräu KG,,,,,
8741,White Star Brewery Ltd,,,,,
8742,Springhead Fine Ales Ltd,,,,,
8768,Greenpoint Beerworks / Kelso of Brooklyn,,,,,
8775,O'Griff's Irish Pub & Brewhouse,,,,,
8776,Barley and Hops Grill & Microbrewery,,,,,
8786,Werner Bräu GmbH,,,,,
8802,Conwy Brewery Ltd,,,,,
8818,Dale Bros. Brewery,,,,,
8912,Privatbrauerei Kesselring Gmbh & Co. KG,,,,,
8913,Hasen Bräu Augsburg,,,,,
8919,Suginoya Brewery (Hamachi Shuzo K.K.),,,,,
8923,The Olde Heidelberg Tavern and Brew Pub,,,,,
8930,Dempsey's Restaurant And Brewery,,,,,
8943,Old Cottage,,,,,
8958,Spectrum Brewery,,,,,
8984,Bazens' Brewery Co Ltd,,,,,
8994,Les Brasseurs De Lorraine,,,,,
9003,Erzquell Brauerei Bielstein Haas & Co. KG,,,,,
9008,Buffalo Brewpub,,,,,
9011,Rebellion Beer Co,,,,,
9020,Yazoo Brewing Company,,,,,
9021,Weiss Rössl Bräu,,,,,
9025,Boscos Restaurant & Brewing Co. - Little Rock,,,,,
9026,Wanaka Beerworks,,,,,
9027,Miner's Brewery,,,,,
9028,Brasserie Nationale d'Haiti,,,,,
9031,Nelson Bay's Brewery,,,,,
9035,Aiken Brewing Company,,,,,
9036,BJ's Restaurant & Brewery,,,,,
9045,Times Square Brewery,,,,,
9048,Industrial Cervecera S.A. / Compañía Cervecera De Nicaragua,,,,,
9051,Moor Beer Company,,,,,
9054,Downton Brewery Company,,,,,
9055,Kazbegi JSC,,,,,
9056,Chernigivske Pivokombinat,,,,,
9057,Samarqand 1-Son Pivo Zavodi Pulsar,,,,,
9061,Brasserie Des Abers,,,,,
9062,Les Trois Brasseurs,,,,,
9065,Brasserie Cooperative Tri Martolod,,,,,
9089,Permskaya Pivovarinnaya Kompaniya,,,,,
9090,Pivovariya Solenoukhov,,,,,
9095,Deschutes Brewery & Public House,,,,,
9099,Zolotoy Ural OAO,,,,,
9104,Front Street Brewery,,,,,
9121,SBC Restaurant & Brewery - Branford,,,,,
9135,Dark Isle Brewery,,,,,
9138,Cheers Tavern,,,,,
9139,Feral Brewing Co.,,,,,
9141,Mallard Brewery,,,,,
9146,Wineglass Bay Brewery,,,,,
9148,Woof Breweries,,,,,
9149,Ranova-Krasnaya,,,,,
9174,Smokehouse Winery,,,,,
9187,Gotenba Kohgen Brewery,,,,,
9188,Norilskiy Pivovarinniy Zavod,,,,,
9192,Brasserie De La Chapelle,,,,,
9193,Brasserie Morbraz,,,,,
9197,Huisbrouwerij Sint Canarus,,,,,
9208,Umenishiki Yamakawa,,,,,
9209,Sapporo Kaitakushi Brewery Harriet,,,,,
9211,Doshisha Corporation,,,,,
9225,Susukino Ji-Beer (Shimijimi Sapporo Restaurant/Brewpub),,,,,
9226,Whitstran Brewing Company,,,,,
9229,Kagawa Brewery,,,,,
9256,Brouwerij Meesters,,,,,
9261,Krasnozerskiy Pivkombinat Novosibirskovo Oblpotrebsoyuz,,,,,
9262,"Grupo Cervezas Alhambra, SL",,,,,
9264,Royal Bavaria Restaurant & Brewery,,,,,
9269,Flour City Brewing Co.,,,,,
9275,PT Bali Hai Brewery Indonesia,,,,,
9276,Trask Brewery & Public House,,,,,
9282,Boscos Restaurant & Brewing Co. - Memphis,,,,,
9283,Brauerie Franz Kammhuber,,,,,
9297,Brasserie du Bouffay,,,,,
9298,Brasserie De La Cote De Jade,,,,,
9300,Les Sarments,,,,,
9329,Bintara Brewery,,,,,
9343,Beer Works,,,,,
9345,Wm. Kuether Brewing,,,,,
9347,Pivovar Ferdinand / Pivovar Beneov,,,,,
9349,M&#283;&#357;anský Pivovar Strakonice,,,,,
9350,Pivovar Vykov,,,,,
9351,Pivovar a Sodovkárna Jihlava,,,,,
9359,C&#275;su Alus Darîtava,,,,,
9369,Myanmar Brewery and Distillery,,,,,
9370,Consorcio Cervecero De Baja California ( La Taberna TJ ),,,,,
9372,"Compania Cervecera Kunstmann, S.A.",,,,,
9373,South East Asia Brewery,,,,,
9374,UAB Švyturys,,,,,
9378,Wadi-Brau-Huss AG,,,,,
9385,Apu Brewery,,,,,
9388,"Dempsey's Brewery, Restaurant & Pub",,,,,
9414,La Brasserie Du Scala,,,,,
9422,Wold Top Brewery,,,,,
9429,Rheingold Brewing Co.,,,,,
9457,"Jacob Rainier & Sohn, Brauerei",,,,,
9480,Pater Van Damme,,,,,
9482,Ishikari Banya No Ji-Beer,,,,,
9483,Kairinmaru Beer,,,,,
9510,Privatbrauerei Waldhaus,,,,,
9529,Cumberland Brews,,,,,
9534,John Martin's (John Martin SA),,,,,
9538,Atomic Ale Brewpub And Eatery,,,,,
9545,Joker Bar,,,,,
9550,Upstream Brewing Company - Legacy,,,,,
9558,Brown's Brewing Company,,,,,
9563,Queen City Brewing Limited,,,,,
9568,Teme Valley Brewery,,,,,
9570,Apex Brewing Company,,,,,
9574,Red Lion Ales,,,,,
9592,Prodel S.r.l,,,,,
9605,"Loddon Brewery, The",,,,,
9608,Shaws Brewery,,,,,
9611,Wild River Brewery And Restaurant,,,,,
9632,Brasserie Lauth,,,,,
9639,"Old Mill Brewery, The",,,,,
9645,Halifax Steam Brewing Company Ltd,,,,,
9663,Heineken Italia SpA,,,,,
9672,Yokohama Beer,,,,,
9673,Tokachi Beer,,,,,
9685,Amnesia Brewing,,,,,
9700,Hereford Brewery,,,,,
9704,Emmett's Brewing Company,,,,,
9717,Mo’s Place Grill & BrewPub,,,,,
9718,Cwmbran Brewery,,,,,
9726,Les Frères Houblon Microbrasserie,,,,,
9729,Holdfast Hotel,,,,,
9734,Awa Bakushu,,,,,
9741,Artebirraia,,,,,
9745,Margaret River Ale Company,,,,,
9749,Bondi Beer Company,,,,,
9750,Nagisa Beer K.K.,,,,,
9767,Welton's Brewery,,,,,
9771,Harringtons Brewery,,,,,
9772,Dux de Lux,,,,,
9774,Huebert Brewing Company,,,,,
9775,Brasserie De Saint Omer,,,,,
9784,Zero Gravity Craft Brewery / American Flatbread,,,,,
9790,The Duck-Rabbit Craft Brewery,,,,,
9797,North Country Brewing,,,,,
9816,Bryggeriet Refsvindinge,,,,,
9819,Thoroughbreds Grill & Brewing,,,,,
9820,Elk Head Brewing Company,,,,,
9823,Downtown Joe's American Bar And Grill,,,,,
9826,Altitude Chophouse & Brewery,,,,,
9827,Big City Brewing CO LTD,,,,,
9830,Clair De Lorraine,,,,,
9854,Tuatara Brewing Co.,,,,,
9860,Chiltern Brewery,,,,,
9863,Brewsters Brewing Company & Restaurant - Eleventh Avenue,,,,,
9865,Brewsters Brewing Company & Restaurant - Lake Bonavista,,,,,
9869,Astoria Brewing Company / Wet Dog Cafe,,,,,
9877,Rush River Brewing Company,,,,,
9880,Brasserie Artisanale Du Dauphiné,,,,,
9891,Brasserie Warenghem,,,,,
9892,Tigertops Brewery,,,,,
9897,Jolly Pumpkin Artisan Ales,,,,,
9899,C.I. Shenanigan's Seafood & Chophouse,,,,,
9903,Brasserie Alauna,,,,,
9904,Ferme-Brasserie De Gaillon,,,,,
9905,Beer Works Chitose,,,,,
9914,Sequoia Brewing Company,,,,,
9921,Brasserie Artisanale Des Grands Cols,,,,,
9922,Brasserie Des Trois Fontaines,,,,,
9932,Winkels Getränke GmbH & Co./Markgrafenbräu,,,,,
9961,Cerveza Ancla Colombia,,,,,
9962,Birkenhead Brewery,,,,,
9979,Moulin Des Moines,,,,,
9985,Olde Towne Brewing Co.,,,,,
10004,Brasserie Distillerie Du Mont Blanc,,,,,
10029,Bluetongue Brewery Pty Ltd,,,,,
10038,Alt-Oberurseler Brauhaus,,,,,
10046,Left Coast Brewing Company,,,,,
10049,Kamloops Brewery Ltd,,,,,
10067,Brasserie An Alarc'h,,,,,
10068,Brasserie Artisanale Du Trégor,,,,,
10085,Brouwerij De Kemphaan,,,,,
10087,Omaha Jack's Grillhouse & Brewery,,,,,
10089,Redoak Boutique Beer Café,,,,,
10093,Strangford Lough Brewing Company Ltd,,,,,
10095,Cervejaria Baden Baden,,,,,
10096,Cervejaria Sudbrack Ltda,,,,,
10097,Harpoon Brewery,,,,,
10101,"Fujiyama Beer, K.K.",,,,,
10102,Randalls of Guernsey,,,,,
10103,Bakushukan Clair (Kure Beer),,,,,
10104,Yuiga Doxon Ji Beer,,,,,
10113,Waiheke Island Brewery Ltd,,,,,
10114,Vulkan Brauhaus GmbH,,,,,
10116,Steelback Brewery,,,,,
10122,Thunder Bay Brewing Company,,,,,
10131,BABB Srl,,,,,
10148,Grado Plato,,,,,
10152,Moonshine,,,,,
10153,Pisgah Brewing Co.,,,,,
10154,Abbey Bells Brewery,,,,,
10155,Acorn Brewery Of Barnsley,,,,,
10157,Brasserie Les Trois Fourquets,,,,,
10158,Belvoir Brewery Ltd,,,,,
10164,Brouwerij Clarysse NV,,,,,
10165,Tarricone S.p.A.,,,,,
10184,Black Dog Brewery,,,,,
10193,Blindmans Brewery,,,,,
10204,Zuma Brewing Company,,,,,
10214,Cervejaria Petrópolis,,,,,
10215,De Porto Ind. E Com. De Bebidas Ltda.,,,,,
10217,Cervejaria Devassa,,,,,
10218,Big Easy Brewing Company,,,,,
10224,"BJ's Pizza, Grill & Brewery",,,,,
10226,Water Street Brewing & Ale House,,,,,
10243,Brasserie De La Pigeonnelle,,,,,
10245,Ferme-Brasserie Saint Rieul,,,,,
10272,Innis & Gunn,,,,,
10279,OPA-OPA Steakhouse & Brewery,,,,,
10284,Independence Brewing Co.,,,,,
10287,Micro Cervejaria Falke Bier,,,,,
10288,Industrial Norte Paranaense De Bebidas Ltda,,,,,
10290,Stratford Brewing Company,,,,,
10298,Akashi Brewery K.K.,,,,,
10312,Cervejaria Ashby,,,,,
10317,Tindall Ale Brewery,,,,,
10321,Central City Brewing,,,,,
10324,Scarampola,,,,,
10325,Vecchio Birraio,,,,,
10365,William Greenwood Brewing Co Ltd,,,,,
10366,Zerodegrees Bristol,,,,,
10370,Old Bear Brewery,,,,,
10378,Old Capitol Brew Works and Public House,,,,,
10393,Shinshu Toumi City Promotion Public Corporation,,,,,
10397,Sly Fox Brewing Company,,,,,
10425,McMenamins Old St. Francis School,,,,,
10436,Klamath Basin Brewing Co.,,,,,
10439,Ridna Marka,,,,,
10443,Brasserie Du Sollier,,,,,
10446,Two Rows Restaurant And Brewery,,,,,
10450,Dorset Brewing Company Ltd,,,,,
10453,Wylam Brewery,,,,,
10460,Marble Arch Pub,,,,,
10485,East End Brewing Company,,,,,
10523,Gotlands Bryggeri,,,,,
10525,Bryggeriet S.C. Fuglsang,,,,,
10526,Israel Beer Breweries Ltd.,,,,,
10540,La Cervesera Artesana,,,,,
10541,Cucapá Brewing Company,,,,,
10543,Three Rivers Eatery And Brewhouse,,,,,
10544,Guinness Nigeria PLC,,,,,
10546,Suomenlinnan Panimo Sveaborgs Bryggeri,,,,,
10548,St. Vincent Brewary LTD.,,,,,
10549,Charleville Vineyard Microbrewery,,,,,
10557,KleinBrouwerij De Glazen Toren,,,,,
10560,Illinois Brewing Company,,,,,
10567,John S. Rhodell Brewery,,,,,
10574,Gasthaus-Brauerei Braustelle,,,,,
10588,Hoppers Grill & Brewing Co.,,,,,
10590,Bitter Creek Brewing Company,,,,,
10607,Sixpoint Brewery,,,,,
10613,Great Northern Brewery and Restaurant,,,,,
10626,Stumptown Brewery & Smokehouse,,,,,
10629,Schmohz Brewing Company,,,,,
10641,Thomas Hardy Burtonwood Limited,,,,,
10643,Derwent Brewing Co.,,,,,
10661,Big Horn Brewing Company,,,,,
10673,Warbird Brewing Company,,,,,
10678,La Tour A Bières,,,,,
10699,Pittsfield Brew Works,,,,,
10703,Yumeminatobeer Co. Ltd.,,,,,
10707,Trader Joe's Brewing Company,,,,,
10729,Cervejaria Colorado,,,,,
10750,An Teallach Ale Co.,,,,,
10753,Islay Ale Co. Ltd.,,,,,
10758,Cervejaria Universitária,,,,,
10768,Doghouse Brewery Co,,,,,
10772,Isetskiy Pivobyezalkogolniy Zavod,,,,,
10774,Micro-Brasserie Brouemont,,,,,
10775,La Mare Au Diable,,,,,
10790,Beck's Sports Brewery,,,,,
10796,Flying Monkeys Craft Brewery,,,,,
10808,Die Weisse Salzburger Weissbierbrauerei,,,,,
10818,Bauer´s Marchfelder Storchenbräu,,,,,
10829,Keltenhof,,,,,
10836,Roosterfish Brewing Co.,,,,,
10861,Sharp's Brewery,,,,,
10878,"Minakuchi Shuzo, K.K.",,,,,
10892,Maluti Mountain Brewery / Lesotho Brewing,,,,,
10897,Carlsberg Sverige AB,,,,,
10898,Hantverksbryggeriet AB,,,,,
10899,"Irish Pub Sundsvall (""Dublin"")",,,,,
10902,Närke Kulturbryggeri AB,,,,,
10903,Oppigårds Bryggeri AB,,,,,
10912,Golden State Brewing Company,,,,,
10924,Casa Di Conti,,,,,
10930,Oirschots Bier,,,,,
10950,Richmodis-Bräu,,,,,
10960,Ramapo Valley Brewery,,,,,
10991,Christian Moerlein Brewing Company,,,,,
10993,Shirak Manufacturers,,,,,
10994,VAT Berdichivskiy Pivzavod,,,,,
10996,Roots Organic Brewery,,,,,
11017,Trumer Brauerei Berkeley,,,,,
11031,Brouwerij De Molen,,,,,
11032,EleganT Brouwerij,,,,,
11034,"Bard's Tale Beer Company, LLC",,,,,
11036,Foothills Brewing Company,,,,,
11038,Keltic Brewing Company,,,,,
11039,The Frog & Onion - Dockyard Brewing Co.,,,,,
11053,The Firehouse Brewing Co.,,,,,
11061,Herslev Bryghus,,,,,
11065,Olvi Oyj,,,,,
11066,Mack Bryggeri,,,,,
11068,Carlsberg Italia S.p.A.,,,,,
11074,Bootie Brewing Company,,,,,
11080,Weetwood Ales,,,,,
11082,Stewart Brewing Ltd,,,,,
11084,"Great Sex Brewing, Inc.",,,,,
11103,Maribo Bryghus (Royal Unibrew),,,,,
11124,Murrieta Pizza & Brewing,,,,,
11127,The Pumphouse Bar,,,,,
11138,Kláterní pivovar Želiv s.r.o.,,,,,
11139,Valleibieren Leusden,,,,,
11141,Hank is Wiser Brewery,,,,,
11142,Torin & Co.,,,,,
11143,Pilsnergubbarna AB,,,,,
11148,Braidwood Brewery,,,,,
11150,"Florida Brewery, Inc",,,,,
11159,"Pivovar Nymburk, spol. s r.o.",,,,,
11174,Cervecera Mexicana S.A. De C.V.,,,,,
11186,"Grainstore Brewery, The [Davis'es Brewing Co Ltd]",,,,,
11203,Hog Haus Brewing Company,,,,,
11205,M&#283;stský Pivovar Platan S.r.o.,,,,,
11206,Pivovar Podková&#328;,,,,,
11207,Maui Brewing Co. (Brewpub),,,,,
11212,Iron Horse Brewery,,,,,
11239,Finnegans Inc.,,,,,
11241,Angry Minnow Brewpub,,,,,
11256,À l’abri de la Tempête,,,,,
11257,Ogawa Beer,,,,,
11269,Brugge Brasserie,,,,,
11272,Tryst Brewery,,,,,
11284,Four + Brewing Company,,,,,
11285,Brauerei Bruckmüller,,,,,
11287,Brauerei Winkler,,,,,
11326,Bowland Beer Company Limited,,,,,
11327,Hesket Newmarket Brewery,,,,,
11328,Westerham Brewery Company Ltd,,,,,
11333,Beer Station,,,,,
11341,Hideout Brewing Company,,,,,
11342,Schooner's Grille & Brewery,,,,,
11344,Cuillin Brewery,,,,,
11357,Artos Breweries Ltd,,,,,
11361,Heiner Brau,,,,,
11365,Færgekroen,,,,,
11370,Hill Brewing Company,,,,,
11371,Shimane Beer K.K.,,,,,
11372,Hamanako Brewery,,,,,
11384,Valott,,,,,
11385,Salamander Brewing Company,,,,,
11392,Ales Of Scilly Brewery,,,,,
11394,Butts Brewery Ltd.,,,,,
11395,Tring Brewery Company Ltd.,,,,,
11410,Bartrams Brewery,,,,,
11421,Sin City Brewing Co.,,,,,
11426,SBC Restaurant & Brewery - Milford,,,,,
11434,Brasserie Du Canardou,,,,,
11437,Northern Brewing Limited,,,,,
11438,Nelson Brewing Company,,,,,
11439,"Healthy Brew, Inc.",,,,,
11466,Lodi Beer Company,,,,,
11482,Traktir Rus,,,,,
11485,Grindstone Brewing Co.,,,,,
11489,Interbeer,,,,,
11492,Methow Valley Brewing Company/Twisp River Pub,,,,,
11494,Sonoma Chicken Coop,,,,,
11497,Wig & Pen Tavern & Brewery,,,,,
11512,Beltaine Appennino Risorse,,,,,
11524,Pivovar Janá&#269;ek,,,,,
11528,Le Grimoire,,,,,
11530,Leek Brewing Company Ltd,,,,,
11531,Brouwerij Angerik BVBA,,,,,
11532,Brasserie Authentique,,,,,
11551,Deka Brewery,,,,,
11565,Mt. Tallac Brewing,,,,,
11580,Santa Cruz Mountain Brewing,,,,,
11587,Le Sergent Recruteur,,,,,
11597,Asheville Brewing Company,,,,,
11599,Green Man Brewery,,,,,
11600,Sacramento Brewing Company's Oasis,,,,,
11611,Bridge Road Brewers,,,,,
11618,Wiedenmayer Brewing Corp.,,,,,
11650,Mobius Brewing,,,,,
11659,Rome Street Tavern Grill,,,,,
11675,Silverton Brewery,,,,,
11679,Four Peaks Grill & Tap,,,,,
11689,Gella's Diner & Lb. Brewing Co.,,,,,
11710,Speciaalbierbrouwerij Oijen,,,,,
11711,Stichting Noordhollandse Alternatieve Bierbrouwers (SNAB),,,,,
11715,Destiny Brewing Company,,,,,
11726,Privatbrauerei Friedrich Riemhofer GmbH & Co. KG,,,,,
11739,Brasserie Mortal's Beers,,,,,
11742,Isle Of Mull Brewing Co. Ltd.,,,,,
11743,Naylor's Brewery,,,,,
11746,Le Brasse-Temps (Mons) / Microbrasserie Le Brasse-Temps,,,,,
11747,Hargreaves Hill Brewing Company,,,,,
11748,Diamond Beer Brewing Company,,,,,
11750,Brasserie Grain D'Orge,,,,,
11752,Brasserie De Lautène,,,,,
11753,Brasserie Artisanale Millevertus De Toernich,,,,,
11754,Brasserie Saint Donat,,,,,
11784,A Tribbiera,,,,,
11814,Saugatuck Brewing Company,,,,,
11819,Brauerei Baar AG,,,,,
11841,Schnuckenbräu,,,,,
11856,Syndicate Restaurant & Brewery,,,,,
11863,Brasserie Artisanale De La Divatte,,,,,
11864,Brasserie Artisanale Ratz,,,,,
11867,Brasserie De La Brière,,,,,
11872,Brasserie Saint-Germain,,,,,
11882,Round Barn Brewery,,,,,
11890,Bierbrouwerij Grand-Café  Emelisse,,,,,
11891,Bierbrouwerij Mommeriete,,,,,
11904,Bush Shack Brewery,,,,,
11927,Steam Brewing Company,,,,,
11933,Coach's Restaurant,,,,,
11936,Sierra Madre Brewing Co.,,,,,
11940,Brasserie De Tunis,,,,,
11941,Pécsi Sörfözde,,,,,
11977,Howe Sound Inn & Brewing Company,,,,,
11984,Shoreline Brewery And Restaurant,,,,,
12003,Emmett's Brewing Company,,,,,
12007,Hayashibune Yakurai Beer,,,,,
12011,Macardle Moore,,,,,
12041,Les Bieres Des Hauts,,,,,
12047,Svaneke Bryghuse,,,,,
12097,BrewPub København,,,,,
12098,Skye Book And Brew,,,,,
12110,Gritty McDuff's Brewery & Pub,,,,,
12125,Storm Brewing Co.,,,,,
12128,Fox Brewery Ltd,,,,,
12130,Wild's Brewery Ltd.,,,,,
12140,Steinbach Bräu,,,,,
12142,Williams Brothers Brewing Company,,,,,
12145,Bushy's (Mount Brewing Company Ltd),,,,,
12154,Vasa Bryggeri AB,,,,,
12155,The Mash Tun,,,,,
12164,Back Street Brewery,,,,,
12173,Brasseurs Savoyards,,,,,
12215,Minipivovar U Medvídků,,,,,
12222,Bere Trei Stejari,,,,,
12224,Rinkuškiai Alaus Darykloje,,,,,
12225,Société Des Brasseries De L'Ouest Africain (S.O.B.O.A.),,,,,
12227,Brau Union Hungária Sörgyárak / Soprony Brewery,,,,,
12238,Klaterní Pivovar / The Strahov Monastic Brewery,,,,,
12243,Birrificio Artigiano - Orzo Bruno,,,,,
12252,Falls Brewing Company,,,,,
12267,Porter House,,,,,
12270,Old Spot Brewery Ltd,,,,,
12272,Hobsons Brewery,,,,,
12305,Brasserie Des Rateliers,,,,,
12311,Sancolodi,,,,,
12314,Dry Dock Brewing Co.,,,,,
12315,Old Mill Brewery & Grill,,,,,
12319,Mildura Theatre Brewery Pty Ltd,,,,,
12328,III Dachshunds/City Lounge,,,,,
12334,Schloderer Bräu,,,,,
12351,Lightning Brewery,,,,,
12352,Noujikumiaihoujin Iganosato Mokumoku Tezukuri Farm,,,,,
12353,Brauerei-Gaststätte Schwarzer Adler,,,,,
12354,Brauerei Hebendanz,,,,,
12370,Slopes Restaurant & Brewpub,,,,,
12375,Mt. Carmel Brewing Company,,,,,
12379,Snowy Mountains Brewery,,,,,
12387,WoodVille Brewing Co.,,,,,
12389,Wildlife Brewing & Pizza,,,,,
12392,Petite Brasserie Ardennaise,,,,,
12431,Privatbrauerei St. Ingbert,,,,,
12434,"Miyoshi Beer Co., Ltd. - Sanji Beer Co.",,,,,
12457,Uncle Stuart's Brewery,,,,,
12471,Ellersick Brewing Company,,,,,
12477,Skopska Pivara (Heineken),,,,,
12487,Scrooge & Marley Brewing Co.,,,,,
12491,Hops Grill & Brewery,,,,,
12496,Flathead Lake Brewing Company,,,,,
12502,Blue Heron BrewPub,,,,,
12510,Privat Brauerei Zötler,,,,,
12516,Thirsty Dog Brewing Company,,,,,
12520,Sherbrooke Liquor Store,,,,,
12533,Three Degrees Bar Brewery Brasserie,,,,,
12534,Bright Brewery,,,,,
12537,Slater's Ales,,,,,
12538,Moorilla Estate,,,,,
12547,The Livery,,,,,
12558,Hanby Ales,,,,,
12559,Humpty Dumpty Brewing Company,,,,,
12560,Jarrow Brewing Company,,,,,
12562,North Yorkshire Brewing Company,,,,,
12578,Purrumbete Brewing Company,,,,,
12579,Red Hill Brewery,,,,,
12581,Baikalskaya Pivovarenniya Kompaniya,,,,,
12582,Bauskas Alus,,,,,
12583,Taybeh Brewing Co.,,,,,
12584,Tibet Lhasa Brewery Co.,,,,,
12585,"Chillers Brew Pub, Eatery & Offsale",,,,,
12590,Pivovar Hostan,,,,,
12591,Rogue's Roost Brew Pub & Eatery,,,,,
12604,Pivovar Popper,,,,,
12612,Cerveza Cosaco,,,,,
12613,Sierra Madre Brewing Co.,,,,,
12616,Buffy's Brewery,,,,,
12623,Guangzhou Zhujiang Brewery Co. Ltd.,,,,,
12668,Le Ble D'or,,,,,
12669,North Taiwan Brewery,,,,,
12677,Brauerei Gasthof Rittmayer,,,,,
12691,Macau Beer Company Limited,,,,,
12706,Kannah Creek Brewing Company,,,,,
12713,SchillingBridge Winery & Microbrewery,,,,,
12714,Koskipanimo Plevna,,,,,
12718,Saint André,,,,,
12736,Ryburn Brewery,,,,,
12744,Vintage Beers Pty Ltd,,,,,
12770,City Grille and Brewhaus,,,,,
12788,Firehouse Grill & Brewery,,,,,
12849,Warcop Brewery,,,,,
12864,Elveden Ales,,,,,
12877,NINE G Brewing Company,,,,,
12907,Sauris AgriBeer S.a.s,,,,,
12912,Fletcher Street Brewing Company,,,,,
12913,B.A.R.T.S.,,,,,
12921,Bryggeriet Skands,,,,,
12922,Gourmetbryggeriet,,,,,
12939,Tipple's Brewery,,,,,
12954,Jarrah Jacks / Pemberton Brewing Company,,,,,
12955,Colonial Brewing Company,,,,,
12957,Brasserie Celtik,,,,,
12959,Captain Lawrence Brewing Co.,,,,,
12997,Ram Big Horn Brewery,,,,,
13004,Milton Brewery,,,,,
13010,Bruveris - SIA Alus Tirdzniecibas Grupa,,,,,
13014,Surly Brewing Company,,,,,
13022,Rosie's Brewpub,,,,,
13029,Thornbridge Brewery,,,,,
13030,Porter Brewing Co. Ltd.,,,,,
13049,Brasserie La Bierataise,,,,,
13059,King Street Brewhouse,,,,,
13065,Telegraph Brewing Company,,,,,
13066,Old Savannah Brewing Company,,,,,
13067,Barossa Valley Brewing,,,,,
13086,Maihama Beer Koubou Harvestmoon Brewery At Roti's House,,,,,
13092,Otley Brewing Company Limited,,,,,
13096,Hideji Beer,,,,,
13107,McKenzie Brew House,,,,,
13111,Whittingtons Brewery,,,,,
13130,"Helios Distillery Co., Ltd.",,,,,
13131,Kirishima Corporation,,,,,
13136,Gage Roads Brewing Company,,,,,
13137,Elmar's In The Valley,,,,,
13159,Brasserie Artisanale La Frasnoise,,,,,
13160,'t Hofbrouwerijke,,,,,
13163,Millis Brewing Co. Ltd,,,,,
13164,Australian Independent Brewers,,,,,
13165,Barons Brewing Company,,,,,
13189,Little Valley Brewing Ltd,,,,,
13190,Wessex Brewery,,,,,
13199,Pivovar Ostravar (Staropramen Breweries / Inbev),,,,,
13207,Pivovar Corgo&#328; (Heineken Slovensko),,,,,
13208,Cereuro - Cervejeira Europeia (Tagus),,,,,
13209,"Drinkin - Comp. Ind. Bebidas E Alimentação, S.A. (CINTRA)",,,,,
13215,Baeren Brauerei,,,,,
13227,Founders Organic Brewery,,,,,
13228,Green Man Brewery,,,,,
13230,The Twisted Hop Real Ale Brewpub,,,,,
13231,Wigram Brewing Co,,,,,
13236,Big Ridge Brewing Co.,,,,,
13239,Royal Beer Company Ltd.,,,,,
13242,Nanto Brewery,,,,,
13252,Loco Brewery - Shimor,,,,,
13264,Unazuki  Beer Kan,,,,,
13271,Les Brasseurs,,,,,
13273,Farmer's Boy (Veralum Brewery),,,,,
13278,Oirase Brewery,,,,,
13290,Wäldches Bräu GmbH,,,,,
13295,White Horse Brewery Company Limited,,,,,
13296,Windsor Castle Brewery (Sadler's Ales),,,,,
13298,Barefoot Brewery,,,,,
13299,Cambridge Moonshine Brewery,,,,,
13302,Butternuts Beer & Ale,,,,,
13306,Greenfield Real Ale Brewing Ltd,,,,,
13307,Mikkeller ApS,,,,,
13327,Hereford & Hops Restaurant & Brewpub,,,,,
13337,Old Harbor Brewery Steak & Lobster House,,,,,
13342,Butautu Dvaro Bravoras / UAB Fulgor,,,,,
13382,SIA Piebalga Alus,,,,,
13391,Fallen Angel Brewery,,,,,
13393,First In Last Out (FILO) Brewery,,,,,
13394,Inawashiro Brewery,,,,,
13397,Mountaineer Brewing Co.,,,,,
13402,Black Lotus Brewery,,,,,
13403,Mill Creek Brewery / Freddy's Brewpub,,,,,
13407,Kloster Machern,,,,,
13408,Microbrauerei Barkowsky - Marcus Bräu,,,,,
13412,Syktyvkarpivo,,,,,
13423,Roosters Brewing Company and Restaurant,,,,,
13425,Brau Und Brunnen Brauereien GmbH,,,,,
13446,Wind River Brewing Company,,,,,
13447,Lander Brewing Company,,,,,
13450,Monterey Coast Brewing,,,,,
13473,West Berkshire Brewery Company,,,,,
13485,Hopstar Brewery,,,,,
13486,Lancaster Brewery Company Ltd,,,,,
13496,Jyohana Beer,,,,,
13501,The Cellar Grill,,,,,
13504,Lucky Labrador Beer Hall,,,,,
13523,Peaks Brewpub,,,,,
13524,Oceanside Ale Works,,,,,
13529,Stallhagens Bryggeri Ab,,,,,
13547,Ruby River Steakhouse & Brewery,,,,,
13548,Tracks Brewing Company,,,,,
13558,G.G. Brewers,,,,,
13564,Sonoran Brewing Company,,,,,
13594,Chastnaya Pivovarnya Erstes,,,,,
13602,Weston Brewing Company & O'Malley's Pub,,,,,
13614,Brauerei Neder,,,,,
13627,TOO Dinal,,,,,
13628,"TOO Kompaniya Ak-Nar (""Derbes"")",,,,,
13640,Baltika-Baku,,,,,
13656,Sierra Madre Brewing Co.,,,,,
13659,Kross Microbrew Beer (Southern Brewing Company),,,,,
13662,Saimaan Panimo,,,,,
13667,Starr Hill Brewery,,,,,
13670,The Two Metre Tall Company Pty Ltd,,,,,
13757,Pitchers Brewery & Sports Shack,,,,,
13768,Gardner Ale House,,,,,
13789,Küppers Brauerei GmbH,,,,,
13816,Wensleydale Brewery Ltd,,,,,
13818,Lipetskpivo,,,,,
13819,Romanovskiy Produkt,,,,,
13831,Taps Brewing Co. Inc.,,,,,
13832,Skeena Brewing Company,,,,,
13865,Ölands Gårdsbryggeri,,,,,
13866,"Hosokawa Sake Brewing Co., Ltd.",,,,,
13879,Riverside Brewery And Restaurant,,,,,
13882,Galatea Spirits,,,,,
13884,Peak Organic Brewing Company,,,,,
13891,Potton Brewery Company Limited,,,,,
13892,Red Squirrel Brewery,,,,,
13897,Marston Moor Brewery Limited,,,,,
13900,Wm Evan Evans Brewery,,,,,
13903,"Horseshoe, The",,,,,
13905,Brasserie Dunham,,,,,
13907,Crabtree Brewing Company,,,,,
13918,Steffans Aldergrove Brewery,,,,,
13955,Ring 'O' Bells Brewery,,,,,
13956,Eastwood The Brewer (John Eastwood),,,,,
13959,Weatheroak Brewery Ltd.,,,,,
13965,Potbelly Brewery,,,,,
13981,Il Vicino Brewery Canteen,,,,,
13986,Landmark Beer Company,,,,,
13989,Stockholm's,,,,,
14000,Bradfield Brewery,,,,,
14003,"Why Not Brewery, The",,,,,
14012,Smolenskoye Pivo,,,,,
14014,Southern Bay Brewing Company,,,,,
14016,The Mussel Inn,,,,,
14017,Brew Moon Brewing Co.,,,,,
14033,Cervecería Minerva,,,,,
14034,Corner Brewery & Beer Garden,,,,,
14050,Der Krug Brauhaus,,,,,
14064,Kern River Brewing Company,,,,,
14078,Half Pints Brewing Company,,,,,
14097,Fenland Brewery Limited,,,,,
14100,Wooden Hand Brewery,,,,,
14127,Amber's Brewing Co.,,,,,
14160,Freedom Brewery Ltd,,,,,
14177,Walldorff Brewpub and Bistro,,,,,
14207,Sprague Farm & Brew Works,,,,,
14225,Manav Breweries Pvt. Ltd.,,,,,
14239,Brentwood Brewing Co. Ltd,,,,,
14241,Saffron Brewery,,,,,
14242,Shardlow Brewing Company Ltd,,,,,
14250,The Grey Parrot,,,,,
14264,Raasted & Randers Bryghus A/S,,,,,
14289,Poltavpivo,,,,,
14294,Newby Wyke Brewery,,,,,
14305,Daigo Brewery,,,,,
14306,"Kizakura Sake Brewing Co., Ltd.",,,,,
14313,Powerhouse Brewing Company's Columbus Bar,,,,,
14319,AMB - Maître Brasseur,,,,,
14327,Bierbrier Brewing Inc,,,,,
14338,Piccolo Birrificio,,,,,
14340,Alt Platz Brewing Company LLC,,,,,
14343,Great Oakley Brewery,,,,,
14349,Whistler Brewing Company,,,,,
14358,Embers Grill,,,,,
14365,Growlers,,,,,
14400,Ninkasi Brewing Company,,,,,
14439,Sigtuna Brygghus,,,,,
14440,Abbey Wright Brewing Co.,,,,,
14444,Azumino Brewery,,,,,
14445,Native Stone Winery & Bull Rock Brewery,,,,,
14458,Brasserie Des Monts,,,,,
14478,Jessenhofke NV,,,,,
14484,Shamrock Brewing Co.,,,,,
14492,Almond '22,,,,,
14502,BluCreek Brewing,,,,,
14516,Elysian Fields,,,,,
14518,Kassik's Kenai Brew Stop,,,,,
14520,Kenai River Brewing Co.,,,,,
14532,Charly's Brew Pub & Grill,,,,,
14551,Green Valley Brewing Company (Crooked Creek),,,,,
14562,Raxx Barbecue & Brewing Co.,,,,,
14577,Lazy Boy Brewing,,,,,
14589,Rustic Rail Grill And Brewhouse,,,,,
14598,Dead Frog Brewing,,,,,
14609,Craig Street Brew Pub,,,,,
14617,Brauhaus Südstern,,,,,
14646,Bowral Brewing Company,,,,,
14649,Pivara MB,,,,,
14654,BIP (Beogradska Industrija Piva),,,,,
14660,Triple J Chophouse And Brew Co,,,,,
14662,Birrificio L'Olmaia,,,,,
14663,Birrificio L'Orso Verde,,,,,
14677,Cerveza Dowel,,,,,
14678,Cervejas De Moçambique,,,,,
14687,Emerald Hill Brewery,,,,,
14736,Hausbräu Stegaurach,,,,,
14737,Kleines Eifeler Brauhaus,,,,,
14745,Southern Appalachian Brewery,,,,,
14754,The Highlander,,,,,
14756,Bluegrass Brewing Co.,,,,,
14771,Brauhaus Jettenbach KG,,,,,
14783,Nihon Beer J&#333;z&#333; K.K.,,,,,
14794,Abbey Beverage Company,,,,,
14822,Lindenbräu,,,,,
14830,Ironbark Brewery,,,,,
14855,"Bad Monkey Brewing Company, LLC",,,,,
14867,Griesedieck Brothers Brewery Co.,,,,,
14879,Hoppin' Frog Brewery,,,,,
14881,Dorn-Bräu,,,,,
14905,Backwoods Imports Inc.,,,,,
14916,Les Brasseurs du Hameau,,,,,
14933,Hadrian & Border Brewery,,,,,
14952,Williamsburg AleWerks,,,,,
14955,Cervejaria Schornstein,,,,,
14967,Brau Brothers Brewing Co. LLC,,,,,
14970,La Petrognola,,,,,
14991,Pivovar Konrad / Pivovar Hols,,,,,
14997,Brauerei Steigerwald - Familie Hike,,,,,
15032,Powerhouse Restaurant And Brewery,,,,,
15035,Brasserie Lorraine S.A.,,,,,
15042,Vintage 50 Restaurant And Brew Lounge,,,,,
15050,WinterCoat,,,,,
15052,Buckley's Beers,,,,,
15057,Helm,,,,,
15065,Termini Brewing,,,,,
15083,De Fontein,,,,,
15089,Stevns Bryghus,,,,,
15095,Árainn Mhór Brewing Company,,,,,
15098,Font Salem,,,,,
15112,Hurricane Brewing Company,,,,,
15120,Nordbräu Ingolstadt GmbH & Co.,,,,,
15122,Skebo Bruksbryggeri,,,,,
15135,Brauerei Weitnau,,,,,
15181,Jolly Brewery+Restaurant,,,,,
15185,Cerveza Jerome,,,,,
15187,Takau Brewery,,,,,
15189,Big Boss Brewing,,,,,
15191,Allendale Brew Company Limited,,,,,
15193,Brimstage Brewing Co Ltd,,,,,
15194,Cotswold Spring Brewery Ltd,,,,,
15195,Cotswold Brewing Company,,,,,
15196,Derventio Brewery Limited,,,,,
15197,Empire Brewing,,,,,
15203,Fabrique De Bière Des Diaoulig,,,,,
15218,C.B. & Potts,,,,,
15237,De Struise Brouwers,,,,,
15280,Atwater Block Brewery,,,,,
15314,Skyscraper Brewing Company,,,,,
15324,Five Seasons North,,,,,
15327,Back Street Brewery,,,,,
15344,Steinacher Hausbräu,,,,,
15367,Brauerei Eichhorn,,,,,
15368,Löwenbräu Buttenheim,,,,,
15372,Brasserie Kohler Rehm,,,,,
15394,Brasserie BVM Inc.,,,,,
15435,Beau's All Natural Brewing Company,,,,,
15504,Laht Neppur Brewing Company,,,,,
15524,Brauhaus Lemke,,,,,
15526,Hopfenstark,,,,,
15527,Meta Abo Brewery - Ethiopia,,,,,
15578,The Dancing Camel Brewing Co.,,,,,
15584,Biha&#263;ka Pivovara,,,,,
15597,Gulf Brewery,,,,,
15603,Kombolcha Brewery,,,,,
15607,Asmara Breweries,,,,,
15610,"Louisiane Brewhouse, Nha Trang",,,,,
15627,Landauer Brauhof,,,,,
15636,Calapooia Brewing Company,,,,,
15642,Flat Earth Brewing Company,,,,,
15656,Regensburger Weißbräuhaus,,,,,
15665,Whale Gulch Brewing Company,,,,,
15673,West Brewing Company,,,,,
15682,Privatbrauerei Andreas Sauer GmbH,,,,,
15697,Broadway Pub,,,,,
15705,Hoover's 101 Cafe,,,,,
15709,Atna Bryggeri,,,,,
15715,Wyre Piddle Brewery,,,,,
15719,Purity Brewing Co,,,,,
15737,Grumpy's Brewhaus,,,,,
15740,Zierholz Premium Brewery,,,,,
15750,Half Moon Restaurant & Brewery,,,,,
15756,Brauerei-Gasthof Drummer,,,,,
15765,BJ's Restaurant & Brewhouse,,,,,
15781,Carlsberg Breweries A/S,,,,,
15783,Jergensen`s Brewery,,,,,
15813,Monkey King Brewery & Floribbean Grill,,,,,
15828,Brauerei Gasthof Pfister GmbH,,,,,
15833,Cervejaria Teresópolis,,,,,
15836,Lodi&#326;a Alus,,,,,
15897,O'Brien Brewing,,,,,
15898,The Lucky Drink Co. Pty Limited,,,,,
15900,Brauerei Vasold & Schmitt,,,,,
15908,Guinness Ghana Breweries Group,,,,,
15912,Privatbrauerei Jacob Stauder GmbH & Co. KG,,,,,
15925,Epic Brewing Company,,,,,
15928,Yanjing Pijiu (Guilin Liquan) Gufen Youxian Gongsi,,,,,
15942,Saint John's Bier,,,,,
15943,Crow Peak Brewing,,,,,
15975,Brouwerij Het Levenswater,,,,,
15976,De 7de Hemel,,,,,
15979,Olde Richmond Beer Company,,,,,
15982,Dagon Brewery,,,,,
15983,Mandalay Brewery,,,,,
15997,Orlio Organic Beer Company,,,,,
15999,Cerveceria Artesanal El Bolson,,,,,
16004,Guinness Anchor Berhad / Sungei Way Brewery,,,,,
16006,Thai Asia Pacific Brewery Company Limited,,,,,
16010,Helderbräu Brewery,,,,,
16011,Bavarian Brauhaus,,,,,
16014,Two Rows Restaurant & Brewery,,,,,
16020,University Of Ballarat Brewing,,,,,
16023,Crown Beverages,,,,,
16036,Taberna De La Muralla,,,,,
16038,Summerskills Brewery,,,,,
16041,Birrificio B.O.A. (Birrificio Ostiense Artigianale),,,,,
16043,Birrificio Del Ducato,,,,,
16049,Cayman Islands Brewery Ltd.,,,,,
16050,Privatbrauerei Hösl,,,,,
16055,Amager Bryghus,,,,,
16057,Maui Brewing Co.,,,,,
16058,Max's Fanno Creek Brew Pub,,,,,
16060,Weeping Radish Eco Farm & Brewery,,,,,
16068,Oakshire Brewing,,,,,
16070,The Pump Room,,,,,
16071,"Eola School, Brewery, And Lodge",,,,,
16076,Stateline Brewery,,,,,
16077,Fort George Brewery + Public House,,,,,
16094,Double Mountain Brewery & Taproom,,,,,
16096,Allentown Brew Works,,,,,
16097,Murree Brewery Co. Ltd.,,,,,
16098,Margaritaville Brewing Co.,,,,,
16105,Mayflower Brewing Company,,,,,
16111,Smoky Mountain Brewery & Restaurant,,,,,
16118,Worth Brewing Company,,,,,
16126,Growstown Brewing Company,,,,,
16127,Cerveceria Patagonia Primitiva S.A.,,,,,
16159,Hanoi Beer Company,,,,,
16186,Triangle Brewing Company,,,,,
16196,Les Faiseurs De Biere,,,,,
16197,Pivovar Rohozec,,,,,
16198,North Star Craft Brewery,,,,,
16199,Temple Brewing Company,,,,,
16201,Hoggleys,,,,,
16205,Saint Somewhere Brewing Company,,,,,
16232,Brickstone Restaurant & Brewery,,,,,
16234,Rudder's Seafood Restaurant & Brew Pub,,,,,
16236,Guangdong Blue Ribbon Group,,,,,
16237,Red Rock Brewery,,,,,
16238,Barada Beer Company,,,,,
16247,Angry Hank's Microbrewery,,,,,
16249,Archipelago Brewing Company / Craft Beer Hub,,,,,
16254,Microbrasserie De Chamonix,,,,,
16256,Carolina Brewery,,,,,
16269,Inlet Brewing Co.,,,,,
16271,Bull Falls Brewery,,,,,
16276,Turm Bräu,,,,,
16289,Laurelwood Public House & Brewery,,,,,
16290,Skagen Bryghus,,,,,
16291,Kongens Bryghus,,,,,
16292,Fanø Bryghus,,,,,
16293,Roskilde Øl,,,,,
16296,Warwick Bryghus Aps,,,,,
16297,Ribe Bryghus,,,,,
16301,Bryggeri Skovlyst,,,,,
16304,Grand River Brewing,,,,,
16315,BrewDog,,,,,
16316,Burleigh Brewing Co.,,,,,
16319,Brasserie Nationale (Bofferding),,,,,
16320,Brasserie de la Senne,,,,,
16321,Sonnenbräu AG,,,,,
16322,Brouwerij Het Alternatief,,,,,
16323,Brasserie De La Baie,,,,,
16325,Carter's Brewing,,,,,
16330,Erix Birra,,,,,
16331,Banjalu&#269;ka Pivara,,,,,
16333,Tallgrass Brewing Company,,,,,
16334,Northern Ales & Grocery,,,,,
16338,Beautiful Brews Inc.,,,,,
16344,Boulder Dam Brewing Co.,,,,,
16345,DuClaw Brewing Co.,,,,,
16351,Benderskiy Pivovarinniy Zavod,,,,,
16352,Blue Mountain Brewery,,,,,
16353,Hopworks Urban Brewery,,,,,
16354,COAST Brewing Company,,,,,
16385,Linden Street Brewery,,,,,
16386,O'so Brewing Company,,,,,
16389,Destihl Restaurant & Brew Works,,,,,
16393,Mission Brewery,,,,,
16401,All-American Grill & Brewhouse,,,,,
16402,Red Eye Brewing Company,,,,,
16403,Mudgee Brewing Co,,,,,
16414,Galway Hooker Brewery,,,,,
16415,Howard Town Brewery,,,,,
16418,Grain Brewery,,,,,
16419,Oxfordshire Ales,,,,,
16422,Frankenthaler Brauhaus,,,,,
16423,Allgates Brewery,,,,,
16432,White Dog Brewery,,,,,
16433,Birrificio Menaresta,,,,,
16445,Brasserie De LAbbaye Du Cateau,,,,,
16447,Mulholland Brewing Company,,,,,
16451,M. T. Barrels Restaurant & Brewery,,,,,
16456,Cody Brewing Company,,,,,
16465,Croucher Brewing Co.,,,,,
16472,Birrificio Freccia,,,,,
16497,Hops Grill & Brewery,,,,,
16501,Lan Kwai Fong Beer,,,,,
16503,Right Brain Brewery,,,,,
16504,Nebraska Brewing Company,,,,,
16517,McCann's Food & Brew,,,,,
16524,Lobethal Bierhaus,,,,,
16526,Elk Creek Cafe & Aleworks,,,,,
16530,Rise Bryggeri,,,,,
16531,Wild Creek Brewing Company,,,,,
16533,Hub City Brewing Company,,,,,
16534,Renaissance Brewing,,,,,
16536,Birrificio Barley,,,,,
16586,Saltram of Barossa,,,,,
16589,Spring House Brewing Company,,,,,
16590,Pivovar Rakovnik,,,,,
16591,The Brewhouse At Eastlake,,,,,
16593,Glentworth Brewery,,,,,
16594,LagerHaus Grill & Brewery,,,,,
16602,Schongauer Brauhaus,,,,,
16603,Kaltentaler Brauhaus,,,,,
16604,Landhausbräu Koller,,,,,
16605,"Ratsbrauerei ""Zum Bäuml""",,,,,
16713,HopCat,,,,,
16785,Fantail Brewing Company,,,,,
16787,Brouwerij Rodenburg,,,,,
16789,Barefoot Brewers,,,,,
16790,Brouwerij De Dochter van de Korenaar,,,,,
16791,Otro Mundo Brewing Company,,,,,
16792,Boak Beverage,,,,,
16802,Q Beer,,,,,
16803,Microbrasserie Du Lac-Saint-Jean,,,,,
16807,King Lucky Food Industrial Corporation,,,,,
16808,Akuna Brewery,,,,,
16809,Brauerei Penning Zeißler,,,,,
16811,Brasserie Artisanale Océane,,,,,
16813,Barrio Brewing Company,,,,,
16814,Bavarian Barbarian Brewing Company,,,,,
16816,Lone Peak Brewery,,,,,
16818,Berwick Brewing Company,,,,,
16820,Birra Peja,,,,,
16822,Eipeltauer Privatbrauerei,,,,,
16823,Het Klaverblad V.O.F.,,,,,
16824,The Little Brewing Company,,,,,
16836,Pizza Beer Company,,,,,
16843,Hangar 24 Brewery,,,,,
16845,Oktoberfest,,,,,
16846,Block 15 Brewery & Restaurant,,,,,
16859,Great South Bay Brewery,,,,,
16863,Wapping Beers Ltd.,,,,,
16864,Brauerei Schwarzes Kreuz,,,,,
16866,The Bruery,,,,,
16867,Zion Canyon Brewing Company,,,,,
16872,Honest Town Brewery & The Dark Horse Tavern,,,,,
16873,10 Barrel Brewing Co.,,,,,
16874,Townshend Brewery,,,,,
16878,Marshall Brewing Company,,,,,
16881,Tullibardine Distillery,,,,,
16886,Café - Brouwerij Nieuwhuys,,,,,
16888,Monastyrskiy Kvas,,,,,
16890,Livu Alus,,,,,
16892,Legends Sportsbar And Brewpub,,,,,
16896,Br'hant,,,,,
16900,Baja Brewing Company,,,,,
16914,Schnitzerbräu,,,,,
16943,Loup Rouge,,,,,
16947,Hops Grill & Brewery,,,,,
16949,Sweetwater Brewing Company,,,,,
16950,Birrificio Artigianale Gilac,,,,,
16953,Cervecería Cape Horn,,,,,
16963,Marble Brewery,,,,,
16980,Novecento Fabbrica Della Birra,,,,,
16983,Carlsberg Croatia,,,,,
16984,Ostankino Brewery,,,,,
16993,Brasseurs De Montréal,,,,,
16994,Ohio Brewing Company,,,,,
16996,Microbrasserie Pit Caribou,,,,,
17001,Hornbeam Brewery,,,,,
17004,Watemill Inn and Brewing Co.,,,,,
17005,Two Beers Brewing Co.,,,,,
17006,"Cervezas Moritz, S.A.",,,,,
17014,Railway City Brewing Company,,,,,
17020,Microbrasserie Le Corsaire,,,,,
17021,Brass Monkey Brewing Co.,,,,,
17033,Franconia Brewing Company,,,,,
17048,Hopmonk Tavern,,,,,
17054,The Blind Bat Brewery LLC,,,,,
17086,"Bières 23, Brasserie Artisanale",,,,,
17087,Zerodegrees Cardiff,,,,,
17088,"Robson's, Shongweni Brewery",,,,,
17103,Privatbrauerei Gessner,,,,,
17116,Southern Oregon Brewing Company,,,,,
17161,Gordash Brewing Company,,,,,
17204,SBC Restaurant & Brewery - Hamden,,,,,
17206,Wolf Beer Company,,,,,
17208,Ölvisholt Brugghús,,,,,
17211,Hertel Brauvertrieb GmbH,,,,,
17212,Ufford Ales Ltd.,,,,,
17214,Concrete Cow Brewery,,,,,
17216,Bridgnorth Brewing Company,,,,,
17223,"Intercourse Brewing Company, LLC",,,,,
17227,William Bull Brewery,,,,,
17229,Cortland Beer Company,,,,,
17232,Original Gravity Brewing Company,,,,,
17233,Microbrasserie La Chouape,,,,,
17243,Cerveses La Gardènia,,,,,
17270,Wakonda Brewing Company,,,,,
17271,Bootlegger's Brewery,,,,,
17280,Gentse Stadsbrouwerij,,,,,
17281,Black Market Brewing Co.,,,,,
17282,Good People Brewing Company,,,,,
17283,YellowBelly Brewery & Public House,,,,,
17285,Mattingly Brewing Company,,,,,
17286,Zeos Brewing Company S.A.,,,,,
17287,Wedge Brewing Company,,,,,
17290,Brasserie d'Oc,,,,,
17292,Cervecería Bayernbräu de México,,,,,
17293,The Stable,,,,,
17310,Otway Estate Winery & Brewery,,,,,
17783,1702 / The Address Brewing Co.,,,,,
17856,Rex Beverage Holdings,,,,,
17882,Carlson Craft Brewery,,,,,
17893,Shooting Creek Farm Brewery,,,,,
17894,CP Brewery at Brews and Cues,,,,,
17914,Les 3 Brasseurs,,,,,
17927,Les 3 Brasseurs - Quartier Dix30,,,,,
17928,Brasserie Du Loch,,,,,
17945,Lockdown Brewing Company,,,,,
17953,Old Coast Road Brewery,,,,,
17960,Three Creeks Brewing Co.,,,,,
17961,Hollywood Beach Brewing Company,,,,,
17962,Uncommon Brewers,,,,,
17963,Nectar Ales,,,,,
17975,Strömsholms Brygghus & Pub,,,,,
17978,River Bend Brewing Company,,,,,
17980,Lawson's Finest Liquids,,,,,
17981,Cigar City Brewing,,,,,
17988,Breakwater Brewing,,,,,
18003,Microbrasserie Le Naufrageur,,,,,
18012,Seven Brides Brewing,,,,,
18045,Praský Most u Vals&#367; Restaurant & Brewery,,,,,
18046,Carlsberg Srbija D.O.O. Pivara,,,,,
18070,Spirito DiVino / Bierwinkel Bacelle,,,,,
18080,"Boone Brewing Company, LLC",,,,,
18081,Big Al Brewing,,,,,
18085,St. Elias Brewing Company,,,,,
18086,The Run of the Mill Public House & Brewery,,,,,
18089,Eastern Shore Brewing,,,,,
18110,Seven Sheds Brewery,,,,,
18111,4 Pines Brewing Company,,,,,
18115,S.C. Bere Mure&#351;,,,,,
18117,Pivovar Bašta (Sousedský Pivovar U Bansethů),,,,,
18129,Cellar Rats Brewery,,,,,
18144,Lake on the Mountain Brewery,,,,,
18149,The Lost Abbey,,,,,
18152,Blackwood Valley Brewing Company / The Cidery,,,,,
18154,Browar Fortuna,,,,,
18155,Brasserie du Chardon,,,,,
18156,Bali Storm Brewing Company,,,,,
18168,Peekskill Brewery,,,,,
18175,The Greenhouse,,,,,
18182,Brouwerij De Vlier,,,,,
18184,Khan Bräu Brewery,,,,,
18185,Hokusetsu Brewery,,,,,
18186,Red Rat Craft Brewery,,,,,
18225,Nail Creek Pub & Brewery,,,,,
18229,Pivovara Li&#269;anka,,,,,
18230,Minipivovar Žamberk,,,,,
18231,Pivovarský dv&#367;r Plze&#328; / Purkmistr Restaurant,,,,,
18232,Brasserie De Bellefois,,,,,
18233,Brouwerij De Drie Koningen,,,,,
18234,Glenbar Malting,,,,,
18237,Jefferson St. Brewing Company,,,,,
18254,Blue Canoe Brewery,,,,,
18260,Magister Fabrica De Cervezas,,,,,
18268,Sumidagawa Brewery Pub,,,,,
18276,Pat's Pub & Brewhouse,,,,,
18316,Al's of Hampden / Pizza Boy Brewing,,,,,
18345,"Charlie's Steak, Ribs & Ale",,,,,
18349,Main St. Grille & Brewing Company,,,,,
18353,Naked City Taphouse,,,,,
18355,Drei Kronen 1308 Brauhaus,,,,,
18368,Mary's Pizza Shack,,,,,
18369,Hell's Gate Brewing Company,,,,,
18371,Pretty Things Beer & Ale Project,,,,,
18372,Keuka Brewing Company,,,,,
18381,Brasserie La Morgat,,,,,
18383,Beaver Creek Brewery,,,,,
18386,Gol Beer (Cerveja Coruja),,,,,
18388,Cervejaria Três Lobos Ltda.,,,,,
18389,Fabricas Nacionales De Cerveza,,,,,
18391,Cervecería Artesanal Mastra,,,,,
18392,Cervejaria Bruge,,,,,
18393,Micro Cervejaria Bamberg,,,,,
18399,Lahnsteiner Brauerei,,,,,
18400,Hausbrauerei Rampendahl,,,,,
18414,Three Troupers Brewery,,,,,
18416,The Flying Horse Bar & Brewery,,,,,
18536,Blacksmith Brewing,,,,,
18537,Golan Brewery,,,,,
18539,Devils Backbone Brewing Company,,,,,
18540,"Manchester Brewing, LLC",,,,,
18563,Lift Bridge Brewery,,,,,
18564,Upslope Brewing Company,,,,,
18565,Old Man River Restaurant,,,,,
18580,Duelund Bryglade,,,,,
18591,Blue Tractor BBQ & Brewery,,,,,
18604,Lervig Aktiebryggeri AS,,,,,
18635,Aviator Brewing Company,,,,,
18636,Ölgerð Reykjavíkur,,,,,
18724,Old Forge Brewing Company,,,,,
18738,Bar Teerenpeli,,,,,
18739,Bruuveri,,,,,
18796,Boquébière,,,,,
18800,Big Daddy's,,,,,
18816,Vertigo Brewing,,,,,
18823,Freetail Brewing Company,,,,,
18842,Brasserie Artisanale De La Crécelle,,,,,
18845,Brasserie Artisanale Savoyarde - B.A.S.,,,,,
18847,Brasserie d'Orgemont,,,,,
18848,Ferme Brasserie Garland,,,,,
18849,Brasserie Henri Monier,,,,,
18851,Öufi Brauerei,,,,,
18853,Plockton Brewery,,,,,
18856,The Backyard Brewhouse,,,,,
18857,Blue House Mediterranean Cafe,,,,,
18858,Driftwood Brewery,,,,,
18878,Den Heischter,,,,,
18879,Chuckanut Brewery & Kitchen,,,,,
18881,Bogota Beer Company,,,,,
18889,Cerveza Artesanal BarbaRoja,,,,,
18893,La Brasserie de Fleurac,,,,,
18894,Triscele Srl,,,,,
18899,Cervejaria Wäls,,,,,
18902,3 Cordilleras,,,,,
18915,Indigo Imp Brewery,,,,,
18927,Bodega 1800 Import & Export Corporation,,,,,
18946,Cave Mountain Brewing Company,,,,,
18954,Nyckel-Bryggerier,,,,,
18963,Brasseries Star Madagascar,,,,,
18968,Appalachian Brewing Company,,,,,
18990,Joseph James Brewing Inc.,,,,,
18997,Captured By Porches Brewing Company,,,,,
19001,Brasserie De La Creuse,,,,,
19002,Brasserie De La Vallée De Chevreuse,,,,,
19012,Bull & Bones Brewhaus & Grill,,,,,
19015,Revolution Brewing,,,,,
19030,AS Puls Brewery,,,,,
19069,La Gastaldia,,,,,
19089,Brasserie des Fontaines,,,,,
19101,Bays Brewery Ltd.,,,,,
19114,Yak and Yeti,,,,,
19126,Lonerider Brewing,,,,,
19127,Metropolitan Brewing,,,,,
19131,Birreria San Gabriel,,,,,
19139,Brasserie Des Vignes,,,,,
19141,La Brasserie du Caou,,,,,
19143,La Brasserie du Pays Flamand,,,,,
19144,Fentimans Ltd.,,,,,
19145,Brasserie Larché,,,,,
19150,BirrOne,,,,,
19155,Bierbrouwerij Openluchtmuseum Arnhem,,,,,
19161,H.Nettelbeck KG,,,,,
19202,Creekside Brewing Company,,,,,
19208,Den Gale Brygger,,,,,
19213,Blue Hills Brewery,,,,,
19218,Dansk Mjød A/S,,,,,
19235,Limestone Brewing Company,,,,,
19241,Lucky Bucket Brewing Co.,,,,,
19247,The Olde Mecklenburg Brewery,,,,,
19252,Blind Lady Ale House & Automatic Brewing Co.,,,,,
19293,Birra Toccalmatto,,,,,
19300,Belgoobeer,,,,,
19304,Breaker Brewing Company,,,,,
19317,Wyken Vineyards,,,,,
19318,Lovibonds Brewery Ltd,,,,,
19348,Xbeeriment I/S,,,,,
19362,Zago S.r.l.,,,,,
19378,Hop Valley Brewing Company,,,,,
19380,Mariposa Brewing Company,,,,,
19402,Inland Empire Brewing Company,,,,,
19424,JT Schmid's,,,,,
19455,Donnington Brewery,,,,,
19456,Coop Ale Works,,,,,
19476,Beer Here,,,,,
19490,Hometown Beverages Brewing Company,,,,,
19516,Old World Brewery,,,,,
19526,Mt. Emily Ale House,,,,,
19536,La Pubilla - Cerveza Artesanal,,,,,
19537,Cerveseria Birrart,,,,,
19538,The Indian Ocean Brewhaus & Grill,,,,,
19553,The Lab Gastropub,,,,,
19571,TOMP Beer & Spirits,,,,,
19573,Mohawk Brewing Company,,,,,
19587,Hofbräuhaus Pittsburgh,,,,,
19597,Les Fous Micro Brasserie,,,,,
19601,Brasserie De Monaco,,,,,
19603,South Pacific Brewery LTD,,,,,
19604,Brasserie Mare Nostrum,,,,,
19607,Llupols I Llevats S.L.,,,,,
19608,West Coast Brewery,,,,,
19609,Aotearoa Breweries NZ Ltd.,,,,,
19610,"M&#283;&#357;anský Pivovar V Poli&#269;ce, A.s.",,,,,
19611,Falkner Cerveceria,,,,,
19658,Brasserie de Jandrain-Jandrenouille,,,,,
19666,Cháu Tiên USA,,,,,
19668,Yellow Cross,,,,,
19675,Abula Alus Dar&#299;tava,,,,,
19691,Roppelt-Bräu Trossenfurt,,,,,
19693,Köthener Brauerei,,,,,
19699,The Monk Brewery & Kitchen,,,,,
19720,Viru Õlu AS,,,,,
19726,MacLean's Ales Brewing,,,,,
19729,Szot Microcervecería,,,,,
19730,Brouwerij Danny,,,,,
19732,Valmiermuiža Alus,,,,,
19741,Praforte,,,,,
19749,Docks,,,,,
19752,St. Francis Brewery & Restaurant,,,,,
19765,Black Raven Brewing Co.,,,,,
19773,Seychelles Breweries Limited (SBL),,,,,
19774,The Fox & Newt / Fox Beer Co.,,,,,
19776,Ghost River Brewing,,,,,
19788,MBF Company / Boxer Brews,,,,,
19798,Wimberley Brewing Company And Brewpub,,,,,
19808,Lovely Valley Beverage Factory,,,,,
19812,Tailgate Beer,,,,,
19832,Crown Valley Brewing & Distilling Co.,,,,,
19837,Mayfield Brewing Company,,,,,
19844,Stone & Wood,,,,,
19868,Whitstran Brewing Company,,,,,
19890,Ale Industries,,,,,
19897,Evolution Craft Brewing Company,,,,,
19915,Pale Horse Brewing Company,,,,,
19928,Frosty Knuckle Brewing Company,,,,,
19932,Lagniappe Brewing Company,,,,,
20017,Five Seasons Westside,,,,,
20039,Traditional Scottish Ales,,,,,
20058,The Hartford Better Beer Co.,,,,,
20104,Pri Kmeta - The Mayor Brewpub,,,,,
20173,Golden Hills Brewing Co.,,,,,
20175,Aktienbrauerei Flims Surselva AG,,,,,
20176,Brauhaus Sternen AG,,,,,
20268,Kirkwood Station Brewing Company,,,,,
20330,Eddyline Restaurant & Brewery,,,,,
20357,Deadwood Café & Brewery,,,,,
20360,Phoenix Beverages Group,,,,,
20389,Orcutt Brew Company,,,,,
20417,White Birch Brewing,,,,,
20430,Dust Bowl Brewing Company,,,,,
20472,Hornbeer,,,,,
20476,Fire Island Beer Company,,,,,
20481,Copper Mountain Beverage Company,,,,,
20506,Brauerei Lieberth,,,,,
20508,Kr&#257;slavas Avots,,,,,
20509,Brouwerij Verstraete,,,,,
20511,Brasserie Artisanale du Centre,,,,,
20531,Små Vesen Bryggeri,,,,,
20594,Cheshire Valley Brewing Company,,,,,
20595,Karmeliter Bräu,,,,,
20601,Brauerei BierVision Monstein AG,,,,,
20608,Inderøy Gårdsbryggeri,,,,,
20630,Oyster House,,,,,
20634,Steer Museumsbräu,,,,,
20638,DUFF Sales & Marketing E.K.,,,,,
20657,Brainerd Lakes Brewery,,,,,
20658,7 Seas Brewery and Taproom,,,,,
20669,Bodega Artesana,,,,,
20672,Sun King Brewing Company,,,,,
20680,Fremont Brewing Company,,,,,
20681,Maine Beer Company,,,,,
20683,Karma,,,,,
20688,16 Mile Brewing Company,,,,,
20689,White Rabbit,,,,,
20706,Brewer S.R.O.,,,,,
20707,The Fat Cat Beer Company,,,,,
20727,The Flowerpots Brewery / The Flowerpots Inn,,,,,
20729,Hart & Thistle,,,,,
20757,Dunbar Brewing,,,,,
20776,The Celt Experience Brewery,,,,,
20777,Quarry Brewing Company,,,,,
20781,Caru' Cu Bere,,,,,
20782,Vilniaus Alus UAB,,,,,
20783,Bir&#371; Alus,,,,,
20784,Passport Brewhaus,,,,,
20788,"UAB ""Astravo""",,,,,
20789,North Cotswold Brewery,,,,,
20791,Bristol Beer Factory,,,,,
20810,Vilkmerg&#279;s Alus,,,,,
20864,Ægir Bryggeri,,,,,
20873,Black Bear Brewery,,,,,
20898,Brauerei Georg Meister,,,,,
20913,Arctic Fox Brewing,,,,,
20972,Gallia Omnia,,,,,
20982,The Blind Pig Brewery,,,,,
20986,Bürgerbräu Bad Reichenhall,,,,,
20988,Becker Brewing Company,,,,,
20998,Battered Boar Brewing Company,,,,,
21001,Wicküler Brauerei GmbH,,,,,
21002,Brauerei Sester GMBH,,,,,
21006,Brasseurs Illimités,,,,,
21012,Cayucos Brewing Company,,,,,
21040,The Idle Brewery,,,,,
21073,Doppelganger's Bar & Grill,,,,,
21092,World Brews,,,,,
21104,Birrificio Pausa Cafe,,,,,
21109,Facer's Flintshire Brewery,,,,,
21113,Box Steam Brewery,,,,,
21138,Growler Craft Brewery,,,,,
21201,Brasserie Cardinal,,,,,
21239,Brauerei Schanzenbräu,,,,,
21274,Wallace Brewing / Orehouse Tasting Room,,,,,
21277,Fusion Brewing,,,,,
21278,Liechtensteiner Brauhaus,,,,,
21280,Occy's Brewery,,,,,
21281,Cowaramup Brewing Company,,,,,
21333,Nova Paka Brewery,,,,,
21334,Brecknock Brewing,,,,,
21336,Duggan's Brewery,,,,,
21340,Great Dane Pub & Brewing Company (Wausau),,,,,
21359,Four Friends Brewing,,,,,
21363,Jolly Pumpkin Cafe And Brewery Ann Arbor,,,,,
21396,Big Muddy Brewing,,,,,
21405,Dave's BrewFarm,,,,,
21421,Pacific Kingdom Trading,,,,,
21430,Doctors Orders Brewing,,,,,
21432,River Side Brewery & Restaurant,,,,,
21442,Bee Creek Brewery,,,,,
21445,BJ's Restaurant And Brewhouse,,,,,
21448,Ladyface Ale Companie,,,,,
21449,Sonoma Springs Brewing Co.,,,,,
21465,Microbrouwerij Den Triest,,,,,
21470,Nile Breweries (SAB),,,,,
21471,Parambot Breweries,,,,,
21473,Morgantown Brewing Company,,,,,
21497,North Peak Brewing Company,,,,,
21512,Whitehead,,,,,
21514,OPA Bier,,,,,
21516,Kirkland Signature / Costco Wholesale Corporation,,,,,
21517,Denali Brewing Company / Twister Creek Restaurant,,,,,
21528,Palouse Falls Brewing Company,,,,,
21537,Hop City Brewing Co.,,,,,
21554,Fire Mountain Brew House,,,,,
21566,Grove Street Brewhouse,,,,,
21567,Odin Brewing Company,,,,,
21568,Horse Heaven Hills Brewery,,,,,
21589,Drummond Brewing Company,,,,,
21590,Ram Restaurant & Brewery,,,,,
21591,Sleepy Dog Brewery,,,,,
21593,MonkSouth (Thirsty Monk South),,,,,
21597,Officina Della Birra,,,,,
21635,Jailhouse Brewing Company,,,,,
21636,Dachsbräu,,,,,
21641,Hamburger Mary's Rec Room,,,,,
21648,Gaststätte Zum Bautzner Tor,,,,,
21678,United Brands Company,,,,,
21721,Bewdley Brewery Co.,,,,,
21722,Island Brew,,,,,
21734,Brouwerij Dilewyns,,,,,
21737,Bandwagon Brew Pub,,,,,
21746,Ale House,,,,,
21757,Wagtail Brewery,,,,,
21760,Bridestones Brewing Company Limited,,,,,
21764,Ferme De Laubicherie,,,,,
21778,Aarhus Bryghus,,,,,
21801,Imperial Premium Beer Ltda.,,,,,
21832,Blue Monkey Brewery,,,,,
21833,Euskal Garagardoa S.L.,,,,,
21834,Ambacht Brewing,,,,,
21841,Craggie Brewing Company,,,,,
21850,"Simpson's Brewing Company, S.A. De R.L. De C.V",,,,,
21862,Galena Brewing Company,,,,,
21865,Ninkasi Fabriques,,,,,
21866,True South Brewery,,,,,
21872,Prism Brewing Company,,,,,
21876,The LAB (Lexington Avenue Brewery),,,,,
21907,Big Rapids Brewing Co.,,,,,
21908,Battle Ground Brewery & Restaurant,,,,,
21935,Amadeus Hausbräu,,,,,
21936,Brauhaus Rheinbach,,,,,
21937,Alter Bahnhof Malsch,,,,,
21952,People's Brewing Company,,,,,
21974,Big Woods Brewing Co.,,,,,
21977,Beard & Brau,,,,,
21983,Shandong Taishan Beer Co Ltd,,,,,
21984,Black Fox Brewing,,,,,
21996,Karibrew,,,,,
22035,The Big Cheese Pizza Co.,,,,,
22051,Odonata Beer Company,,,,,
22065,Redwood Curtain Brewing Company,,,,,
22112,Root Cellar Cafe / Darkside Fermentation,,,,,
22141,Mr CoQuí,,,,,
22147,Peg's Cantina & Brewpub / Cycle Brewing,,,,,
22150,Stillwater Artisanal Ales,,,,,
22157,Rivertown Brewing Co.,,,,,
22167,Fulton Beer,,,,,
22168,Br. De Wijde Wereld / Leidsch Bier,,,,,
22170,Lucky Hand Brewing Company,,,,,
22185,Migration Brewing Company,,,,,
22194,Flat Tail Brewing,,,,,
22196,Infusion Restaurant Bar & Micro Brewery,,,,,
22200,Wormtown Brewing Co.,,,,,
22202,Element Brewing Company,,,,,
22223,Sprig & Fern Brewery,,,,,
22230,Jack's Brewing Company,,,,,
22243,Vintage Brewing Company,,,,,
22276,Brodie's,,,,,
22278,Fulstow Brewery,,,,,
22283,Natty Greene's Pub & Brewing Co.,,,,,
22288,Mt Tabor Brewing,,,,,
22319,Figure 8 Brewing,,,,,
22320,Wilbur Brewing Co.,,,,,
22349,Lefty's Brewing Company,,,,,
22408,Bayou Teche Brewery,,,,,
22409,Unicorn Brewery,,,,,
22410,Great Orme Brewery,,,,,
22411,Duits & Lauret Speciaalbierbrouwerij,,,,,
22412,Noble Ale Works,,,,,
22413,Covington Brewhouse,,,,,
22426,Bahamian Brewery Beverage & Co. Ltd.,,,,,
22430,Mallinsons Brewing Company,,,,,
22433,Orange Blossom Pilsner LLC,,,,,
22434,Foggy Noggin Brewing,,,,,
22439,Lake of Bays Brewing Company,,,,,
22440,Carson’s Restaurant and Brewery,,,,,
22459,JoBoy's Brew Pub,,,,,
22460,Brauhaus Frankenberger E. Ortmanns,,,,,
22466,Northshire Brewery,,,,,
22472,Skull Coast Brewing Company,,,,,
22486,HogsBack Brewing Company,,,,,
22512,Trapp Family Lodge Brewery,,,,,
22513,Madhouse Brewing Company,,,,,
22524,O'Dempsey's,,,,,
22539,Foothills Brewing & Beverage Co.,,,,,
22540,M. T. Head Brewing Co.,,,,,
22543,Birrificio Civale,,,,,
22564,Odd Side Ales,,,,,
22573,Alina S.R.L.,,,,,
22577,Kamihei Sake Brewing / Zumona Beer,,,,,
22589,The Prodigal Son Brewery,,,,,
22598,Cismontane Brewing Company,,,,,
22610,Mother Earth Brew Co.,,,,,
22611,Bridge Brew Works LLC,,,,,
22612,Mt. Pleasant Brewing Company,,,,,
22617,New Jersey Beer Company,,,,,
22619,Cervecera Latinoamericana S.A.,,,,,
22654,Bières De Saint-Louis,,,,,
22655,Straight To Ale,,,,,
22656,Chardon BrewWorks & Eatery,,,,,
22657,La Compagnie de Bière Brisset,,,,,
22659,Harts Pub / Rocks Brewing Co.,,,,,
22660,"Sarbast (UzCarlsberg, LLC)",,,,,
22679,Les 3 Brasseurs - Centropolis,,,,,
22698,Grogg's Pinnacle Brewing Co.,,,,,
22723,Notch Brewing,,,,,
22771,Birrificio Geco,,,,,
22772,Birrificio Rurale,,,,,
22777,The Boon Island Ale House,,,,,
22779,Falls City Brewing Company,,,,,
22783,O'Connor Brewing Co.,,,,,
22799,Scone Bierbrouwerij,,,,,
22805,Brauer-Vereinigung Pegnitz,,,,,
22819,I Due Mastri,,,,,
22829,Piraiki Brewery (&#928;&#949;&#953;&#961;&#945;&#970;&#954;&#942;),,,,,
22843,Breakside Brewery,,,,,
22847,Dungarvan Brewing Company,,,,,
22849,Pivovar Broumov,,,,,
22856,Trouble Brewing,,,,,
22861,Galway Bay Brewery,,,,,
22882,Nibble Bit Tabby,,,,,
22886,Equinox Brewing Company,,,,,
22893,Epic Brewing Co.,,,,,
22896,Artisan Brewing Co.,,,,,
22903,Boxcar Brewing Co.,,,,,
22916,Rivergate Brewing Company / North End Pub,,,,,
22917,Ferguson Brewing Company,,,,,
22920,Argus Brewery,,,,,
22923,Yellowhead Brewery,,,,,
22928,Barrier Brewing Company,,,,,
22933,Harmon Brewing And Tap Room,,,,,
22938,5 Points Brewing Company,,,,,
22972,192 Brewing Company,,,,,
22994,Roth Brewing Company,,,,,
22995,BottleTree Beer Co.,,,,,
23016,Bank Beer Co.,,,,,
23018,Black Husky Brewing,,,,,
23020,Brouwerij Van Viven,,,,,
23022,Ivory Tower Brewing,,,,,
23030,Revelation Cat Craft Brewing,,,,,
23031,Brouwerij Hof Ten Dormaal,,,,,
23034,Vecchia Orsa,,,,,
23035,Brasseurs De La Mauricie,,,,,
23042,Martin Olsson Handels AB,,,,,
23046,Ineeka,,,,,
23052,Great River Brewery,,,,,
23055,Banff Ave. Brewing Co.,,,,,
23058,Pub Dog Brewing,,,,,
23066,Boneyard Beer Company,,,,,
23081,Strange Brewing Company,,,,,
23082,Crested Butte Brewing Co.,,,,,
23090,Thirsty Planet Brewing Company,,,,,
23101,Croocked Moon Brewing,,,,,
23108,Engine 15 Brewing Company,,,,,
23110,Croce Di Malto,,,,,
23121,Halsnæs Bryghus,,,,,
23134,Two Goats Brewing,,,,,
23145,Fullsteam Brewery,,,,,
23191,Mutiny Brewing Company,,,,,
23195,Birrificio Dada,,,,,
23200,Knee Deep Brewing Company,,,,,
23206,Roscoe's Hop House,,,,,
23222,Toppling Goliath Brewing Company,,,,,
23223,Angry Cedar Brewing Company,,,,,
23241,Birrificio Degli Archi,,,,,
23244,Hawkes Bay Independent Brewery,,,,,
23246,Yeastie Boys,,,,,
23248,Hickinbotham Of Dromana,,,,,
23249,The Kernel Brewery,,,,,
23250,Spire Brewery,,,,,
23252,Monkey Wizard Brewery,,,,,
23261,De La Vega's Pecan Grill & Brewery,,,,,
23269,Cerveceria Hacienda,,,,,
23270,Cerveceria Revolucion,,,,,
23284,Smoky Mountain Brewery & Restaurant,,,,,
23300,Birrificio Valcavallina,,,,,
23312,Paradise Creek Brewery,,,,,
23314,Hacker-Pschorr Bräuhaus,,,,,
23315,Crazy Mountain Brewing Company,,,,,
23316,"Leieritz Brewing Company, LLC",,,,,
23318,Crystal Springs Brewing Company,,,,,
23345,Rinkuki&#371; Aluas Darykla,,,,,
23346,Bitter End Brewing Co.,,,,,
23347,Mike Hess Brewing,,,,,
23352,John Boston Premium Beverages,,,,,
23392,Keroche Breweries Limited,,,,,
23393,Cerveza Isleña,,,,,
23394,Robinsons Family Brewers,,,,,
23408,Hakone Beer,,,,,
23409,Brauerei Königshof,,,,,
23420,Det Lille Bryggeri,,,,,
23458,La Brasserie Du Val De Drôme,,,,,
23459,Hermitage Brewing,,,,,
23468,Colorado Mountain Brewery,,,,,
23471,Blue Diamond Brewing Co.,,,,,
23474,Cervecería Cassaro,,,,,
23475,MillKing It Productions,,,,,
23479,Ranga Brewing Company,,,,,
23480,Ekim Brewing Co.,,,,,
23485,Burris Brewing,,,,,
23486,Hebei Lanbei Liquor Group,,,,,
23493,Minipivovar Matuška Broumy (Matuska),,,,,
23519,Extraomnes,,,,,
23552,Emerald City Beer Company,,,,,
23557,The Prodigal Brewery at Misty Mountain Farm,,,,,
23572,Michigan Beer Cellar,,,,,
23576,Schalander Hausbrauerei,,,,,
23585,Lead Feather Brewing Company,,,,,
23590,Brooksville Brewing Company,,,,,
23596,Slip Point Brewing,,,,,
23597,Von Scheidt Brewing Company,,,,,
23605,Herrmannsdorfer Schweinsbräu,,,,,
23615,McCoy Brewery & Co,,,,,
23628,Brouwerij West,,,,,
23635,Lavery Brewing Company,,,,,
23642,Fossil Fuels Brewing Company,,,,,
23643,Van Dieman Brewing,,,,,
23647,Mill Valley Beerworks,,,,,
23649,Hallertau Brewbar,,,,,
23651,Wild Heaven Craft Beers,,,,,
23675,Lumberyard Brewing Company,,,,,
23680,Borg Brugghús,,,,,
23684,Squam Brewing,,,,,
23688,Baying Hound Aleworks,,,,,
23694,Wandering Star Brewing Company,,,,,
23698,BJ's Restaurant And Brewhouse,,,,,
23700,Auchan Production,,,,,
23701,Ben Middlemiss Brewing,,,,,
23738,Neil House Brewery & Homebrew Supply,,,,,
23739,Marco Island Brewery,,,,,
23740,Choperia & Distribuidora Opa Bier,,,,,
23742,Spitting Feathers Brewery,,,,,
23743,Endeavour Beverages,,,,,
23842,Leech Lake Brewing Company,,,,,
23876,BierWerks Brewery,,,,,
23904,North Sound Brewing Company,,,,,
23922,Baxter Brewing Co.,,,,,
23924,Buckman Botanical Brewery,,,,,
23932,Birrificio Bacherotti,,,,,
23934,Janake Wine Group AB,,,,,
23952,Das Bier Cervejaria,,,,,
23953,Dama Bier,,,,,
23966,Blue Pants Brewery LLC,,,,,
23973,Sebago Brewing Company,,,,,
23982,Brasserie Craig Allan,,,,,
24006,Midland Brewing Company,,,,,
24014,Balmain Brewing Company,,,,,
24018,Jester King Craft Brewery,,,,,
24020,Cuan Mor / Oban Bay Brewery,,,,,
24026,The Beer Company,,,,,
24029,Wingman Brewers,,,,,
24047,Crossroads Brewing Company,,,,,
24055,Lucette Brewing Company,,,,,
24056,Thai Me Up,,,,,
24072,Copper Crow Brewing Company,,,,,
24074,Great Newsome Brewery,,,,,
24076,Sulimar Sp. - Browar Cornelius,,,,,
24089,Brauerei Kürzer,,,,,
24095,Columbia River Brewing Co.,,,,,
24105,Milos Beer,,,,,
24118,Endorama,,,,,
24132,Browar Kormoran,,,,,
24135,Shanhaiguan Bull Brewery,,,,,
24136,Abbey Beverage Company (Monastery of Christ in the Desert),,,,,
24145,Frog Island Brewing Company,,,,,
24147,Dunsmuir Brewery Works,,,,,
24162,Finger Lakes Beer Company,,,,,
24212,Madcap Brewery,,,,,
24215,Monks Porter House,,,,,
24240,Les Bières De Charlotte,,,,,
24243,Le Moulin De Saint Martin,,,,,
24244,Sambrook's Brewery,,,,,
24245,Ramses Bier,,,,,
24250,High House Farm Brewery,,,,,
24252,"Darl, Tov",,,,,
24257,The Gamble Mill Restaurant & Microbrewery,,,,,
24299,To Øl,,,,,
24300,Evil Twin Brewing,,,,,
24355,Three Heads Brewing,,,,,
24371,Microcerveceria Gourmet Calavera,,,,,
24372,Abteibrauerei Siegburger Brauhaus - FritzAle,,,,,
24381,Black Star Co-op Pub & Brewery,,,,,
24391,Big Bay Brewing Co.,,,,,
24392,Via Priula,,,,,
24411,The Bier Brewery,,,,,
24428,2nd Shift Brewery,,,,,
24445,Haymarket Pub & Brewery,,,,,
24447,Pensacola Bay Brewery,,,,,
24453,Intuition Ale Works,,,,,
24454,Beach Brewing Company,,,,,
24456,Jobless Burring Co.,,,,,
24477,Solvang Brewing Company,,,,,
24481,Beaver Brewing Company,,,,,
24486,Mornington Peninsula Brewery,,,,,
24487,L'Atelier De La Bière,,,,,
24488,Tin Roof Brewing Company,,,,,
24489,OWA Beer,,,,,
24492,La Franche (Bière artisanale de Franche Comté),,,,,
24502,Au Grimoire Des Légendes,,,,,
24517,White Bluffs Brewing Company,,,,,
24526,Bräu Z' Loh,,,,,
24529,Black Tooth Brewing Company,,,,,
24549,Draper Brewing,,,,,
24574,Lithia Brewing Company,,,,,
24600,Figueroa Mountain Brewing Co.,,,,,
24605,High Sierra Brewing Co.,,,,,
24623,Cervezas Regia Toledo S.L.,,,,,
24625,Elizabeth Street Brewery,,,,,
24655,Mimbres Valley Brewing Company,,,,,
24659,La Cumbre Brewing Co.,,,,,
24671,Pateros Creek Brewing Co.,,,,,
24675,"Those Guys & TG Enterprises, Inc.",,,,,
24676,Borodino ZAO,,,,,
24678,Brewery Vivant,,,,,
24679,Big Beaver Brewing Co.,,,,,
24695,Olde World Ales & Lagers,,,,,
24701,Moon Dog Craft Brewery,,,,,
24712,Engelberger Klosterbräu,,,,,
24736,Roter Oktober,,,,,
24745,Paw Paw Brewing Company,,,,,
24748,Tioga-Sequoia Brewing Company,,,,,
24751,Von Jakob Brewery,,,,,
24757,Benny Brewing Company,,,,,
24787,Saint Boniface Craft Brewing Company,,,,,
24791,Port City Brewing,,,,,
24802,Idle Hands Craft Ales,,,,,
24803,Mystic Brewery,,,,,
24804,Carmody Irish Pub & Brewing,,,,,
24805,Jean Tout Seul,,,,,
24806,Wooden Shoe Brewing Company,,,,,
24813,Beverly Hills Beerhouse Company,,,,,
24814,Yellowhammer Brewing,,,,,
24815,Harriet Brewing,,,,,
24817,Bonfire Brewing Co.,,,,,
24819,Steel City Brewing,,,,,
24821,Australian Hotel & Brewery,,,,,
24824,Shire Reeve Brewing Company,,,,,
24825,Circle Brewing Company,,,,,
24826,Fantasy Brewmasters,,,,,
24827,High Water Brewing,,,,,
24828,Jaden James Brewery,,,,,
24829,Blue Heron Brewing Company,,,,,
24831,American Brewing Company,,,,,
24832,Tap It Brewing Co.,,,,,
24835,Three Pints Brewpub,,,,,
24856,Pratorosso,,,,,
24871,Yorkholo Brewing Co.,,,,,
24876,Birrificio Bresciano Montenetto,,,,,
24879,Refined Ale Brewery,,,,,
24880,Mother's Brewing Company,,,,,
24892,Brewfist,,,,,
24903,Anchorage Brewing Company,,,,,
24926,Mongozo B.V.,,,,,
24939,Harry's International Pte Ltd,,,,,
24940,Almanac Beer Co.,,,,,
24941,Taverner's Tasmanian Boutique Brewery,,,,,
24952,Hopmonk Tavern,,,,,
24954,Brasserie Deseveaux,,,,,
24957,Brouwerij De 7 Deugden,,,,,
24964,Private Stock Brewing Co.,,,,,
25024,White Gypsy,,,,,
25032,Triple Voodoo Brewing,,,,,
25043,Brouwerij Traagwater,,,,,
25051,First Draft - Niagara College Teaching Brewery,,,,,
25053,Sound Brewery,,,,,
25067,"Kysela Pere Et Fils, Ltd.",,,,,
25074,The Doodle Brewing Company,,,,,
25092,The Barber Shop,,,,,
25133,Alligator Brewing Company,,,,,
25151,Red Ear Brewing Company,,,,,
25168,Holy City Brewing,,,,,
25186,The Farmers' Cabinet,,,,,
25191,Crooked Stave Artisan Beer Project,,,,,
25208,Oakland Brewing Company,,,,,
25238,Rogue's Harbor Brewing,,,,,
25241,Long Brewing,,,,,
25251,Woolshed Brewery,,,,,
25255,Saint Katherine's Brewing Company,,,,,
25256,Elevation 66 Brewing,,,,,
25257,The Noble Pig Brewhouse & Restaurant,,,,,
25259,Olvalde Farm & Brewing Company,,,,,
25261,Farside Brew Pub,,,,,
25327,DC Brau Brewing Co.,,,,,
25328,Kensington Brewing Company,,,,,
25335,Browar Restauracja Grodzka 15,,,,,
25336,Brouwerij Donum Ignis,,,,,
25338,El Dorado Brewing Company,,,,,
25351,Beer Engine,,,,,
25370,Finch's Beer Co.,,,,,
25375,San Biagio,,,,,
25378,Kinn Bryggeri AS,,,,,
25383,Tangshan Jinbaili Brewery (Beijing Naale),,,,,
25386,The Griswold Inn,,,,,
25387,Cervecera Regional,,,,,
25393,Icicle Brewing Company,,,,,
25423,New Boswell Brewing Company,,,,,
25430,SoCal Beer Company,,,,,
25432,Cosmic Ales,,,,,
25433,Payette Brewing,,,,,
25434,Buxton Brewery,,,,,
25435,Turkey Hill Brewing Co. Pub & Grille,,,,,
25436,Copper Kettle Brewing Company,,,,,
25484,Brew Eyed,,,,,
25544,5 Rabbit Cerveceria,,,,,
25547,Gio'Bi,,,,,
25565,Brew 42 Brewery,,,,,
25567,Castle Danger Brewery,,,,,
25588,Starokladenský Městský Pivovar U Kozlíků,,,,,
25593,Jackalope Brewing Company,,,,,
25619,"Van Der Bönerbosch Brewing Company, LLC",,,,,
25626,Bicu Genova,,,,,
25668,Armadillo Ale Works,,,,,
25680,Stanley Stawski Distributing,,,,,
25684,Birrificio Indipendente Elav,,,,,
25685,Budge Brothers Brewery,,,,,
25730,Ass Clown Brewing,,,,,
25770,"SLO Organics, LLC",,,,,
25775,Brasseurs Du Monde,,,,,
25805,Flix Brewhouse,,,,,
25811,South County Brewing Co.,,,,,
25812,Roc Brewing Company,,,,,
25818,Lost Rhino Brewing Company,,,,,
25839,St. Petersburg Brewing Company,,,,,
25859,Lazy Monk Brewing,,,,,
25860,508 Gastrobrewery,,,,,
25882,Double Take Brewing Company,,,,,
25888,Perennial Artisan Ales,,,,,
25889,Bomb Beer Company,,,,,
25891,Lennet Brau- Und Vertriebsgesellschaft,,,,,
25893,Cerveceria Artesanal Toro,,,,,
25896,Birrificio F.lli Trami,,,,,
25898,Green Room Brewing,,,,,
25909,Stringers Beer,,,,,
25916,Avondale Brewing Company,,,,,
25918,SP Etrus,,,,,
25925,Arriba Mexican Grill & Casa Arriba Brewing Company,,,,,
25930,Rosinka,,,,,
25931,Ayr Brewing Company,,,,,
25934,Clarens Brewery,,,,,
25936,Mike's Organic Brewery,,,,,
25938,Degrees Brewery,,,,,
25940,Septem Microbrewery,,,,,
25943,Binghams Brewery,,,,,
25949,Olympic Brewery S.A.,,,,,
25953,Piniavos Alutis,,,,,
25955,Summer Wine Brewery,,,,,
25957,Market Garden Brewery,,,,,
25960,Heretic Brewing Company,,,,,
25961,Big Island Brewhaus & Tako Taco Taqueria,,,,,
25962,The Local Pub & Brewery,,,,,
25963,Witch's Hat Brewing Co.,,,,,
25965,Cervejaria Leuven,,,,,
25966,Pivovar Groll,,,,,
25977,Sallandse Landbier Brouwerij,,,,,
25978,Bhutan Brewery PVT Ltd,,,,,
25979,GoodLife Brewing Company & Bier Hall,,,,,
26093,Privatbrauerei Loncium,,,,,
26376,Sudwerk,,,,,
26382,The Phoenix Ale Brewery,,,,,
26384,Birrificio Del Levante - Leone D'Oro,,,,,
26399,Bières De Carcassonne,,,,,
26409,Ancient Lakes Brewing Company,,,,,
26439,Oxbow Brewing Company,,,,,
26458,Mudhook Brewing Company,,,,,
26464,Pang Pang Brewery,,,,,
26467,Amundsen Bryggeri & Spiseri,,,,,
26516,Monday Night Brewing,,,,,
26520,Jack's Abby Brewing,,,,,
26521,Cutters Brewing Company,,,,,
26528,Helltown Brewing,,,,,
26529,American Honor Beer Company,,,,,
26534,Brasseurs Sans Gluten,,,,,
26535,Frampton Brasse,,,,,
26536,Exit 6 Brewery,,,,,
26548,Rolling Meadows Brewery,,,,,
26554,Backlash Beer Company,,,,,
26572,Birra Venezia,,,,,
26612,Old Orange Brewing Co.,,,,,
26616,Swell Brewing Company,,,,,
26620,Denver Beer Co.,,,,,
26623,Magic Rock Brewing,,,,,
26624,Art Cervesers - Cervesa Artesanal,,,,,
26632,Matten,,,,,
26634,Wichita Brewing Co. & Pizzeria,,,,,
26645,Rumspringa Brewing Company,,,,,
26646,HopDog BeerWorks,,,,,
26647,Chocolate City Beer,,,,,
26676,Kane Brewing Company,,,,,
26690,Flack Manor Brewery,,,,,
26695,Cervesera Tramuntana,,,,,
26696,Baias Garagardotegia,,,,,
26697,Krugher & Brent,,,,,
26701,"Karme AS, Karksi Õlle",,,,,
26703,Coastal Brewery,,,,,
26715,Gageleer CVBA,,,,,
26749,Burley Oak Brewery,,,,,
26753,Hardywood Park Craft Brewery,,,,,
26762,Karbach Brewing Co.,,,,,
26765,Revival Brewing Co.,,,,,
26770,Hokkaido Brewing,,,,,
26772,Baja Brewing Company,,,,,
26784,Red Hare Brewing Company,,,,,
26816,Kolding Bryglaug,,,,,
26824,The Civil Life Brewing Company,,,,,
26847,Cervecería Valladolid,,,,,
26864,Kissmeyer Beer,,,,,
26888,Pivovarsky Dvur Zvikov,,,,,
26890,Lillehammer Bryggeri AS,,,,,
26898,Ruhrtal Brauerei - Privatbrennerei Sonnenschein,,,,,
26918,Hilliard's Beer,,,,,
26928,Kallholmens Maltbryggeri AB,,,,,
26932,Golden Road Brewing,,,,,
26936,Fountain Square Brewing Co.,,,,,
26943,Cervecería Encino,,,,,
26944,Blatant Beer,,,,,
26945,Bolets Petràs SCP,,,,,
26946,Big Hurt Brewing Company,,,,,
26950,Liquid Hero Brewery,,,,,
26965,Michelstädter Rathausbräu,,,,,
26983,Rusty Truck Brewing Company / Roadhouse 101,,,,,
26984,Liebhart's Privatbrauerei Detmold,,,,,
26988,Restaurante Bar Rámuri,,,,,
26990,NoDa Brewing Company,,,,,
27004,Slippery Pig Brewing,,,,,
27007,Twelve String Brewing Company,,,,,
27014,Taako Pihtla Õlu,,,,,
27019,Penzance Brewery Co - Star Inn,,,,,
27020,Arbor Ales,,,,,
27021,Tighthead Brewing Company,,,,,
27025,Lucid Brewing,,,,,
27029,Soo Brewing Company,,,,,
27032,Cheboygan Brewing Company,,,,,
27036,Bentley Brewing Company / Dark Horse Tavern,,,,,
27037,Triton Brewing Company,,,,,
27039,The Alchemist,,,,,
27043,Harrington's Breweries,,,,,
27044,Brouwerij VAT No.13,,,,,
27079,Cerveceros Krut S.L.,,,,,
27080,Barney's Beer,,,,,
27084,Bierbrouwerij Maallust,,,,,
27086,Browar Czarnków,,,,,
27087,Browar Na Jurze S.j.,,,,,
27088,Browar Zamkowy Sp. Z O.o.,,,,,
27096,Hillbilly Brewing,,,,,
27116,Brasseries Oldarki,,,,,
27117,BJ's Restaurant & Brewhouse,,,,,
27118,El Cajon Brewing Company,,,,,
27119,Draught Works,,,,,
27122,Wincle Beer Company Limited,,,,,
27123,Société Béninoise De Brasseries (SOBEBRA),,,,,
27125,Two Birds Brewing,,,,,
27130,Bad Bear Brewing Company,,,,,
27132,Compass Brewery,,,,,
27133,Raw Microbrewery,,,,,
27136,Bullant Brewery,,,,,
27179,Crooked Fence Brewing,,,,,
27195,Broadhead Brewing Company,,,,,
27196,Safe Harbor Brewing Co,,,,,
27243,Spider Bite Beer Company,,,,,
27276,The Rileys Brewing Company,,,,,
27280,Science Infuse,,,,,
27317,Le Brasseur Rochelais,,,,,
27322,Berryessa Brewing Co,,,,,
27326,Thirsty Crow,,,,,
27329,Black Heart Brewery,,,,,
27330,Pinchgut Brewing Company,,,,,
27331,Butcher's Brewing,,,,,
27346,Solibra,,,,,
27361,Grafton Brewing Company,,,,,
27429,Browar Koreb,,,,,
27430,Bierhalle - Łódź,,,,,
27632,Aztec Brewing Company,,,,,
27645,Telluride Brewing Co.,,,,,
27710,Grey Sail Brewing of Rhode Island,,,,,
27711,Morrison Brewery,,,,,
27721,"Bacardi U.S.A., Inc.",,,,,
27724,7venth (Seventh) Sun Brewery,,,,,
27742,Beaver Beer Company,,,,,
27773,Mystery Brewing Company,,,,,
27784,Lord Conrad's Brewery,,,,,
27792,Piney River Brewing Company,,,,,
27793,Private Stock Spirits,,,,,
27797,William K Busch Brewing Company,,,,,
27798,Four Horsemen Brewing Company,,,,,
27807,The Untapped Brewing Co.,,,,,
27808,London Fields Brewery,,,,,
27839,Einstök Ölgerð,,,,,
27844,Round Guys Brewing Company,,,,,
27861,Unity Vibration,,,,,
27866,"Os 3 Cervejeiros, Lda.",,,,,
27870,4 Hands Brewing Co.,,,,,
27879,Birdsong Brewing,,,,,
27912,Harvester Brewing,,,,,
27917,Draai Laag Brewing Company / Saints & Turncoats Public House,,,,,
27919,Fiddlehead Brewing Company,,,,,
27920,Redchurch Brewery,,,,,
27922,Smog City Brewing,,,,,
27927,Tatton Brewery,,,,,
27934,Adelbert's Brewery,,,,,
27944,Santa Monica Brewing Company,,,,,
27945,The Foundry / Cantebury Brewers,,,,,
27980,Tap East,,,,,
28000,Brouwerij Maximus,,,,,
28003,Bennexer Brauhaus,,,,,
